postal_code;name;municipality;municipality_name
62710;Kurejoki;005;Alajärvi
62720;Sissala;005;Alajärvi
62730;Haukkala;005;Alajärvi
62740;Koskenvarsi;005;Alajärvi
62750;Saukonkylä;005;Alajärvi
62760;Menkijärvi;005;Alajärvi
62830;Luoma-Aho;005;Alajärvi
62900;Alajärvi Keskus;005;Alajärvi
62920;Levijoki;005;Alajärvi
62940;Hoisko;005;Alajärvi
62950;Paalijärvi;005;Alajärvi
62990;Möksy;005;Alajärvi
63500;Lehtimäki Keskus;005;Alajärvi
63510;Lehtimäki Kirkonkylä;005;Alajärvi
63530;Länsikylä;005;Alajärvi
63540;Hernesmaa;005;Alajärvi
85200;Alavieska Keskus;009;Alavieska
85210;Kähtävä;009;Alavieska
85230;Talus;009;Alavieska
61150;Sydänmaa;010;Alavus
61170;Sääskiniemi;010;Alavus
63210;Niinimaa;010;Alavus
63300;Alavus Keskus;010;Alavus
63320;Kattelus;010;Alavus
63330;Pahajoki;010;Alavus
63340;Sapsalampi;010;Alavus
63350;Sulkavankylä;010;Alavus
63355;Seinäjärvi;010;Alavus
63360;Kuivaskylä;010;Alavus
63370;Taipalus;010;Alavus
63400;Alavus Asemanseutu;010;Alavus
63410;Rantatöysä;010;Alavus
63430;Kätkänjoki;010;Alavus
63600;Töysä Keskus;010;Alavus
63610;Tuuri;010;Alavus
63640;Ritola;010;Alavus
63680;Hakojärvi;010;Alavus
17130;Vesivehmaa;016;Asikkala
17150;Urajärvi;016;Asikkala
17200;Vääksy Keskus;016;Asikkala
17220;Pietilä;016;Asikkala
17240;Kalkkinen;016;Asikkala
17320;Asikkala;016;Asikkala
17410;Viitaila;016;Asikkala
17430;Kurhila;016;Asikkala
17440;Vähimaa;016;Asikkala
17450;Iso-Äiniö-Vähimaa;016;Asikkala
07230;Monninkylä;018;Askola
07500;Askola Kirkonkylä;018;Askola
07510;Vakkola;018;Askola
07530;Onkimaa;018;Askola
07580;Tiilää;018;Askola
07590;Huuvari-Tiilää;018;Askola
07680;Juornaankylä;018;Askola
21370;Aura kk.;019;Aura
21380;Aura Keskus;019;Aura
37800;Toijala keskus;020;Akaa
37830;Viiala Keskus;020;Akaa
37900;Kylmäkoski Asemanseutu;020;Akaa
37910;Kylmäkoski Keskus;020;Akaa
37960;Sotkia;020;Akaa
22840;Lappo;035;Brändö
22910;Torsholma;035;Brändö
22920;Brändö-Åland;035;Brändö
22930;Fiskö;035;Brändö
22940;Åva;035;Brändö
22950;Jurmo;035;Brändö
22270;Storby;043;Eckerö
58160;Karvila;046;Enonkoski
58170;Simanala;046;Enonkoski
58175;Enonkoski Keskus;046;Enonkoski
58180;Ihamaniemi;046;Enonkoski
99400;Enontekiö Keskus;047;Enontekiö
99410;Vuontisjärvi;047;Enontekiö
99420;Peltovuoma;047;Enontekiö
99430;Nunnanen;047;Enontekiö
99440;Leppäjärvi;047;Enontekiö
99450;Palojoensuu-Kuttanen;047;Enontekiö
99460;Kuttanen;047;Enontekiö
99470;Karesuvanto;047;Enontekiö
99490;Kilpisjärvi;047;Enontekiö
02100;Tapiola;049;Espoo
02110;Otsolahti;049;Espoo
02120;Länsikorkee-Hakalehto;049;Espoo
02130;Pohjois-Tapiola;049;Espoo
02140;Laajalahti-Friisinmäki;049;Espoo
02150;Otaniemi;049;Espoo
02160;Westend;049;Espoo
02170;Haukilahti;049;Espoo
02180;Mankkaa;049;Espoo
02200;Niittykumpu;049;Espoo
02210;Olari-Kuitinmäki;049;Espoo
02230;Matinkylä;049;Espoo
02240;Friisilä;049;Espoo
02260;Iivisniemi;049;Espoo
02270;Suomenoja;049;Espoo
02280;Puolarmetsä;049;Espoo
02290;Puolarmetsän sairaala;049;Espoo
02300;Nöykkiö;049;Espoo
02320;Kivenlahti;049;Espoo
02330;Kattilalaakso;049;Espoo
02340;Latokaski;049;Espoo
02360;Espoonlahti;049;Espoo
02380;Suvisaaristo;049;Espoo
02600;Etelä-Leppävaara;049;Espoo
02610;Kilo;049;Espoo
02620;Karakallio;049;Espoo
02630;Nihtisilta;049;Espoo
02650;Pohjois-Leppävaara;049;Espoo
02660;Lintuvaara;049;Espoo
02680;Uusmäki;049;Espoo
02710;Viherlaakso;049;Espoo
02720;Laaksolahti-Lähderanta;049;Espoo
02730;Laaksolahti;049;Espoo
02740;Karvasmäki-Kunnarla;049;Espoo
02750;Sepänkylä;049;Espoo
02760;Espoon Keskus Itäinen;049;Espoo
02770;Espoon Keskus Läntinen;049;Espoo
02780;Kauklahti;049;Espoo
02810;Kumpyöli-Karhusuo;049;Espoo
02820;Nupuri-Nuuksio;049;Espoo
02860;Siikajärvi;049;Espoo
02920;Niipperi;049;Espoo
02940;Lippajärvi;049;Espoo
02970;Kalajärvi;049;Espoo
02980;Lakisto;049;Espoo
27400;Kiukainen Keskus;050;Eura
27420;Panelia Asemanseutu;050;Eura
27430;Panelia;050;Eura
27450;Harola;050;Eura
27500;Kauttua;050;Eura
27510;Eura Keskus;050;Eura
27600;Hinnerjoki;050;Eura
27640;Honkilahti kk;050;Eura
27650;Honkilahti;050;Eura
27670;Mannila;050;Eura
27100;Eurajoki Keskus;051;Eurajoki
27110;Irjanne;051;Eurajoki
27130;Eurajoki asemanseutu;051;Eurajoki
27150;Lapijoki;051;Eurajoki
27160;Olkiluoto;051;Eurajoki
27170;Kuivalahti;051;Eurajoki
62500;Evijärvi Keskus;052;Evijärvi
62510;Kuoppa-aho;052;Evijärvi
62520;Kautiainen;052;Evijärvi
62540;Vasikka-aho;052;Evijärvi
62570;Särkilä;052;Evijärvi
22220;Emkarby;060;Finström
22310;Pälsböle;060;Finström
22330;Tjudö;060;Finström
22410;Godby;060;Finström
30100;Forssa Keskus;061;Forssa
30300;Viksberg;061;Forssa
30420;Tölö;061;Forssa
31110;Matku;061;Forssa
31130;Koijärvi;061;Forssa
31170;Savijoki;061;Forssa
22710;Ålands Degerby;062;Föglö
22340;Geta;065;Geta
85710;Parkkila;069;Haapajärvi
85730;Tulppo;069;Haapajärvi
85800;Haapajärvi Keskus;069;Haapajärvi
85820;Oksava;069;Haapajärvi
85840;Kuona;069;Haapajärvi
86480;Karhukangas;071;Haapavesi
86550;Mieluskylä;071;Haapavesi
86600;Haapavesi Keskus;071;Haapavesi
86650;Kytökylä-Joutenniva;071;Haapavesi
86680;Vatjusjärvi;071;Haapavesi
86690;Karsikas;071;Haapavesi
90480;Hailuoto;072;Hailuoto
69510;Halsua Keskus-Marjusaari;074;Halsua
69550;Kanala;074;Halsua
69570;Karvonen;074;Halsua
49400;Hamina Keskus;075;Hamina
49410;Poitsila;075;Hamina
49420;Uusi-Summa;075;Hamina
49460;Hillo;075;Hamina
49480;Vanha-Summa;075;Hamina
49490;Neuvoton;075;Hamina
49510;Husula;075;Hamina
49520;Reitkalli;075;Hamina
49540;Metsäkylä;075;Hamina
49570;Kannusjärvi;075;Hamina
49610;Sivatti;075;Hamina
49630;Vehkajoki;075;Hamina
49640;Paijärvi;075;Hamina
49660;Pyhältö;075;Hamina
49780;Onkamaa;075;Hamina
49840;Mäntlahti;075;Hamina
22240;Hammarland;076;Hammarland
41490;Niemisjärvi;077;Hankasalmi
41500;Hankasalmi Asemanseutu;077;Hankasalmi
41520;Hankasalmi Keskus;077;Hankasalmi
41530;Veneranta;077;Hankasalmi
41540;Ristimäki;077;Hankasalmi
41550;Hannula;077;Hankasalmi
41560;Säkinmäki;077;Hankasalmi
41580;Sauvamäki;077;Hankasalmi
10820;Lappohja;078;Hanko
10900;Hanko Keskus;078;Hanko
10940;Hangonkylä;078;Hanko
10960;Hanko Pohjoinen;078;Hanko
29200;Harjavalta Keskus;079;Harjavalta
19510;Lepsala;081;Hartola
19540;Koitti-Lepsala;081;Hartola
19600;Hartola Keskus;081;Hartola
19610;Murakka;081;Hartola
19620;Pohela;081;Hartola
19630;Kalhonkylä;081;Hartola
19850;Putkijärvi-Siltasuo;081;Hartola
13700;Parolannummi;082;Hattula
13720;Parola;082;Hattula
13800;Katinala;082;Hattula
13880;Rahkoila;082;Hattula
13900;Pekola;082;Hattula
14430;Vuohiniemi;082;Hattula
14530;Leteensuo;082;Hattula
14610;Lepaa;082;Hattula
14620;Tyrväntö;082;Hattula
12100;Oitti;086;Hausjärvi
12130;Mommila;086;Hausjärvi
12170;Hietoinen;086;Hausjärvi
12210;Hausjärvi kk;086;Hausjärvi
12240;Hikiä;086;Hausjärvi
12310;Ryttylä;086;Hausjärvi
12350;Turkhauta;086;Hausjärvi
79700;Heinävesi Keskus;090;Heinävesi
79810;Karvion kanava;090;Heinävesi
79820;Varistaipale;090;Heinävesi
79830;Palokki;090;Heinävesi
79850;Uusi-Valamo;090;Heinävesi
79860;Suuraho - Uusi-Valamo;090;Heinävesi
79885;Etelä-Petruma;090;Heinävesi
79895;Sarvikumpu;090;Heinävesi
79910;Kerma;090;Heinävesi
79940;Vihtari-Poikiinaho;090;Heinävesi
00100;Helsinki Keskusta;091;Helsinki
00120;Punavuori;091;Helsinki
00130;Kaartinkaupunki;091;Helsinki
00140;Kaivopuisto;091;Helsinki
00150;Eira;091;Helsinki
00160;Katajanokka;091;Helsinki
00170;Kruununhaka;091;Helsinki
00180;Ruoholahti;091;Helsinki
00190;Suomenlinna;091;Helsinki
00200;Lauttasaari;091;Helsinki
00210;Vattuniemi;091;Helsinki
00220;Jätkäsaari;091;Helsinki
00230;Ilmala;091;Helsinki
00240;Länsi-Pasila;091;Helsinki
00250;Taka-Töölö;091;Helsinki
00260;Keski-Töölö;091;Helsinki
00270;Pohjois-Meilahti;091;Helsinki
00280;Ruskeasuo;091;Helsinki
00290;Meilahden sairaala-alue;091;Helsinki
00300;Pikku Huopalahti;091;Helsinki
00310;Kivihaka;091;Helsinki
00320;Etelä-Haaga;091;Helsinki
00330;Munkkiniemi;091;Helsinki
00340;Kuusisaari-Lehtisaari;091;Helsinki
00350;Munkkivuori-Niemenmäki;091;Helsinki
00360;Pajamäki;091;Helsinki
00370;Reimarla;091;Helsinki
00380;Pitäjänmäen teollisuusalue;091;Helsinki
00390;Konala;091;Helsinki
00400;Pohjois-Haaga;091;Helsinki
00410;Malminkartano;091;Helsinki
00420;Kannelmäki;091;Helsinki
00430;Maununneva;091;Helsinki
00440;Lassila;091;Helsinki
00500;Sörnäinen;091;Helsinki
00510;Etu-Vallila;091;Helsinki
00520;Itä-Pasila;091;Helsinki
00530;Kallio;091;Helsinki
00540;Kalasatama;091;Helsinki
00550;Vallila;091;Helsinki
00560;Toukola-Vanhakaupunki;091;Helsinki
00570;Kulosaari;091;Helsinki
00580;Verkkosaari;091;Helsinki
00590;Kaitalahti;091;Helsinki
00600;Koskela-Helsinki;091;Helsinki
00610;Käpylä;091;Helsinki
00620;Metsälä-Etelä-Oulunkylä;091;Helsinki
00630;Maunula-Suursuo;091;Helsinki
00640;Oulunkylä-Patola;091;Helsinki
00650;Veräjämäki;091;Helsinki
00660;Länsi-Pakila;091;Helsinki
00670;Paloheinä;091;Helsinki
00680;Itä-Pakila;091;Helsinki
00690;Tuomarinkylä-Torpparinmäki;091;Helsinki
00700;Malmi;091;Helsinki
00710;Pihlajamäki;091;Helsinki
00720;Pukinmäki-Savela;091;Helsinki
00730;Tapanila;091;Helsinki
00740;Siltamäki;091;Helsinki
00750;Puistola;091;Helsinki
00760;Suurmetsä;091;Helsinki
00770;Jakomäki;091;Helsinki
00780;Tapaninvainio;091;Helsinki
00790;Viikki;091;Helsinki
00800;Länsi-Herttoniemi;091;Helsinki
00810;Herttoniemi;091;Helsinki
00820;Roihuvuori;091;Helsinki
00830;Tammisalo;091;Helsinki
00840;Laajasalo;091;Helsinki
00850;Jollas;091;Helsinki
00860;Santahamina;091;Helsinki
00870;Etelä-Laajasalo;091;Helsinki
00880;Roihupellon teollisuusalue;091;Helsinki
00890;Itäsalmi;091;Helsinki
00900;Puotinharju;091;Helsinki
00910;Puotila;091;Helsinki
00920;Myllypuro;091;Helsinki
00930;Itäkeskus-Marjaniemi;091;Helsinki
00940;Kontula;091;Helsinki
00950;Vartioharju;091;Helsinki
00960;Pohjois-Vuosaari;091;Helsinki
00970;Mellunkylä;091;Helsinki
00980;Etelä-Vuosaari;091;Helsinki
00990;Aurinkolahti;091;Helsinki
01200;Hakunila;092;Vantaa
01230;Vaarala;092;Vantaa
01260;Itä-Hakkila;092;Vantaa
01280;Länsimäki;092;Vantaa
01300;Tikkurila;092;Vantaa
01340;Leinelä;092;Vantaa
01350;Hiekkaharju;092;Vantaa
01360;Koivukylä-Havukoski;092;Vantaa
01370;Jokiniemi;092;Vantaa
01380;Kuusikko-Hakkila;092;Vantaa
01390;Ruskeasanta-Ilola;092;Vantaa
01400;Rekola;092;Vantaa
01420;Päiväkumpu;092;Vantaa
01450;Korso;092;Vantaa
01480;Mikkola;092;Vantaa
01490;Nikinmäki;092;Vantaa
01510;Kirkonkylä-Veromäki;092;Vantaa
01520;Tammisto;092;Vantaa
01530;Veromiehenkylä;092;Vantaa
01600;Myyrmäki;092;Vantaa
01610;Kaivoksela;092;Vantaa
01620;Martinlaakso;092;Vantaa
01630;Hämeenkylä;092;Vantaa
01640;Hämevaara;092;Vantaa
01650;Vapaala;092;Vantaa
01660;Varisto;092;Vantaa
01670;Vantaanlaakso;092;Vantaa
01680;Askisto;092;Vantaa
01690;Ylästö;092;Vantaa
01700;Kivistö;092;Vantaa
01710;Pähkinärinne;092;Vantaa
01720;Petikko;092;Vantaa
01730;Vantaanpuisto;092;Vantaa
01740;Tuupakan teollisuusalue;092;Vantaa
01750;Keimola;092;Vantaa
01760;Seutula;092;Vantaa
01770;Martinlaakson teollisuusalue;092;Vantaa
52510;Hietanen;097;Hirvensalmi
52520;Syväsmäki;097;Hirvensalmi
52550;Hirvensalmi Keskus;097;Hirvensalmi
52610;Tuukkalanlahti;097;Hirvensalmi
52620;Kuitula;097;Hirvensalmi
15270;Kukkila;098;Hollola
15820;Okeroinen;098;Hollola
15860;Kartano;098;Hollola
15870;Salpakangas;098;Hollola
15880;Soramäki;098;Hollola
15980;Messilä;098;Hollola
16500;Herrala;098;Hollola
16630;Tennilä;098;Hollola
16710;Hollola kk;098;Hollola
16730;Kutajärvi;098;Hollola
16790;Manskivi;098;Hollola
17110;Sipilä;098;Hollola
17120;Paimela;098;Hollola
38920;Vatajankoski;099;Honkajoki
38950;Honkajoki Keskus;099;Honkajoki
38970;Lauhala;099;Honkajoki
32610;Vampula Keskus;102;Huittinen
32620;Rutava;102;Huittinen
32700;Huittinen Keskus;102;Huittinen
32710;Sampu;102;Huittinen
32760;Suttila;102;Huittinen
32770;Huhtamo;102;Huittinen
31640;Humppila Keskus;103;Humppila
31650;Venäjänkangas;103;Humppila
89400;Hyrynsalmi Keskus;105;Hyrynsalmi
89430;Hoikka;105;Hyrynsalmi
89540;Moisiovaara;105;Hyrynsalmi
89560;Karhuvaara;105;Hyrynsalmi
05460;Hakalanmäki-Hakala;106;Hyvinkää
05470;Palopuro;106;Hyvinkää
05510;Päivärinta;106;Hyvinkää
05720;Kytäjä;106;Hyvinkää
05800;Hyvinkää Keskus;106;Hyvinkää
05810;Martti;106;Hyvinkää
05820;Mustamännistö;106;Hyvinkää
05830;Kirjavatolppa-Kruununpuisto;106;Hyvinkää
05840;Hyvinkäänkylä-Vehkoja;106;Hyvinkää
05850;Hyvinkää, sairaala-alue;106;Hyvinkää
05860;Talvisilta;106;Hyvinkää
05880;Paavola-Vaivero;106;Hyvinkää
05900;Vieremä;106;Hyvinkää
05950;Ridasjärvi;106;Hyvinkää
38490;Haukijärvi;108;Hämeenkyrö
39100;Hämeenkyrö Keskus;108;Hämeenkyrö
39110;Simuna;108;Hämeenkyrö
39130;Sasi;108;Hämeenkyrö
39150;Pinsiö;108;Hämeenkyrö
39170;Jumesniemi;108;Hämeenkyrö
39180;Herttuala;108;Hämeenkyrö
39195;Kaipio;108;Hämeenkyrö
39200;Kyröskoski;108;Hämeenkyrö
39230;Osara;108;Hämeenkyrö
39290;Vesajärvi;108;Hämeenkyrö
39380;Lavajärvi;108;Hämeenkyrö
13100;Hämeenlinna Keskus;109;Hämeenlinna
13110;Kantola;109;Hämeenlinna
13130;Kauriala;109;Hämeenlinna
13200;Keinusaari;109;Hämeenlinna
13210;Hätilä;109;Hämeenlinna
13220;Sairio;109;Hämeenlinna
13250;Katuma;109;Hämeenlinna
13270;Ruununmylly;109;Hämeenlinna
13300;Käikälä;109;Hämeenlinna
13430;Hattelmala;109;Hämeenlinna
13500;Jukola;109;Hämeenlinna
13530;Hämeenlinna sairaala-alue;109;Hämeenlinna
13600;Ojoinen;109;Hämeenlinna
14300;Renko kk;109;Hämeenlinna
14330;Kaloinen;109;Hämeenlinna
14370;Lukana;109;Hämeenlinna
14450;Rimmilä;109;Hämeenlinna
14500;Iittala;109;Hämeenlinna
14680;Alvettula;109;Hämeenlinna
14690;Torvoila;109;Hämeenlinna
14700;Hauho kk;109;Hämeenlinna
14770;Eteläinen;109;Hämeenlinna
14810;Pohjoinen;109;Hämeenlinna
14820;Syrjäntaka;109;Hämeenlinna
14840;Sairiala;109;Hämeenlinna
14870;Juttila;109;Hämeenlinna
14930;Sappee;109;Hämeenlinna
16900;Lammi kk;109;Hämeenlinna
16960;Iso-Evo;109;Hämeenlinna
16970;Evo;109;Hämeenlinna
16980;Ronni;109;Hämeenlinna
18100;Heinola Keskus;111;Heinola
18120;Reumasairaala-alue;111;Heinola
18130;Tommola-Sahanniemi;111;Heinola
18150;Jyränkö;111;Heinola
18200;Kaakonlampi-Pyhätön;111;Heinola
18300;Heinola kk;111;Heinola
18600;Myllyoja;111;Heinola
19110;Vierumäki taajama;111;Heinola
19120;Vierumäki urheiluopisto;111;Heinola
19210;Lusi;111;Heinola
19250;Syrjäkoski;111;Heinola
19260;Paaso-Syrjäkoski;111;Heinola
91100;Ii Keskus;139;Ii
91110;Ii Asemanseutu;139;Ii
91140;Olhava;139;Ii
91150;Yli-Olhava;139;Ii
95100;Kuivaniemi Keskus;139;Ii
95110;Kuivaniemi kk;139;Ii
95130;Hyryoja;139;Ii
95160;Oijärvi-Lamminperä;139;Ii
74100;Iisalmi Keskus, Eteläinen;140;Iisalmi
74120;Iisalmi Keskus Pohjoinen;140;Iisalmi
74130;Kihmula;140;Iisalmi
74140;Ritoniemi;140;Iisalmi
74150;Laidunmäki;140;Iisalmi
74160;Koljonvirta;140;Iisalmi
74170;Soinlahti;140;Iisalmi
74510;Peltosalmi-Sourunsalo;140;Iisalmi
74520;Kirmanranta;140;Iisalmi
74540;Kotikylä;140;Iisalmi
74550;Pörsänmäki;140;Iisalmi
74590;Kurenpolvi;140;Iisalmi
74595;Runni;140;Iisalmi
19160;Huutotöyry;142;Iitti
47310;Haapa-Kimola;142;Iitti
47400;Kausala;142;Iitti
47440;Sääskjärvi;142;Iitti
47450;Erottaja;142;Iitti
47460;Hiisiö;142;Iitti
47490;Mankala-Hiisiö;142;Iitti
47520;Iitti kk;142;Iitti
47540;Löyttilä;142;Iitti
47610;Kymentaka;142;Iitti
39410;Luhalahti;143;Ikaalinen
39430;Röyhiö;143;Ikaalinen
39450;Sisättö;143;Ikaalinen
39500;Ikaalinen Keskus;143;Ikaalinen
39530;Kilvakkala;143;Ikaalinen
39580;Riitiala;143;Ikaalinen
39590;Tevaniemi;143;Ikaalinen
39610;Kovelahti;143;Ikaalinen
60450;Munakka;145;Ilmajoki
60720;Tuomikylä;145;Ilmajoki
60760;Pohjanluoma;145;Ilmajoki
60800;Ilmajoki Keskus;145;Ilmajoki
61330;Koskenkorva;145;Ilmajoki
61340;Nopankylä;145;Ilmajoki
61350;Huissi;145;Ilmajoki
81350;Tokrajärvi;146;Ilomantsi
81420;Tyrjänsaari;146;Ilomantsi
81430;Kivilahti;146;Ilomantsi
81450;Huhus-Käenkoski;146;Ilomantsi
81460;Käenkoski;146;Ilomantsi
81470;Naarva;146;Ilomantsi
82820;Maukkula;146;Ilomantsi
82830;Haukivaara;146;Ilomantsi
82900;Ilomantsi Keskus;146;Ilomantsi
82915;Sonkaja;146;Ilomantsi
82960;Lehtovaara-Kuikkalampi;146;Ilomantsi
82967;Hattu;146;Ilomantsi
82980;Möhkö;146;Ilomantsi
99800;Ivalo;148;Inari
99830;Saariselkä;148;Inari
99860;Nellim;148;Inari
99870;Inari Keskus-Lemmenjoki;148;Inari
99885;Lemmenjoki;148;Inari
99910;Kaamanen-Partakko;148;Inari
99930;Sevettijärvi-Näätämö;148;Inari
99940;Näätämö;148;Inari
10120;Tähtelä;149;Inkoo
10140;Päivölä;149;Inkoo
10160;Degerby;149;Inkoo
10210;Inkoo Keskus;149;Inkoo
10230;Inkoo Asemanseutu;149;Inkoo
10250;Fagervik;149;Inkoo
10270;Barösund;149;Inkoo
64810;Vanhakylä;151;Isojoki
64820;Kärjenkoski;151;Isojoki
64830;Villamo;151;Isojoki
64840;Heikkilänjoki;151;Isojoki
64850;Möykky;151;Isojoki
64900;Isojoki Keskus;151;Isojoki
64930;Kodesjärvi;151;Isojoki
61500;Isokyrö Keskus;152;Isokyrö
61520;Lehmäjoki;152;Isokyrö
61550;Orismala;152;Isokyrö
61560;Orisberg;152;Isokyrö
66440;Tervajoki;152;Isokyrö
55100;Imatra Keskus;153;Imatra
55120;Mansikkala-Tuulikallio;153;Imatra
55400;Tainionkoski-Mustalampi;153;Imatra
55420;Karhumäki-Karhukallio;153;Imatra
55510;Sotkulampi-Linnasuo;153;Imatra
55610;Rajapatsas-Teppanala;153;Imatra
55700;Vintteri-Virasoja;153;Imatra
55800;Vuoksenniska-Saarlampi;153;Imatra
55910;Rautio-Kurkvuori;153;Imatra
61250;Jalasto;164;Jalasjärvi
61270;Luopajärvi;164;Jalasjärvi
61280;Jokipii;164;Jalasjärvi
61290;Taivalmaa;164;Jalasjärvi
61600;Jalasjärvi Keskus;164;Jalasjärvi
61630;Hirvijärvi;164;Jalasjärvi
61640;Ala-Valli;164;Jalasjärvi
61680;Mantila;164;Jalasjärvi
61710;Pentinmäki;164;Jalasjärvi
61720;Koskue;164;Jalasjärvi
61730;Yli-Valli;164;Jalasjärvi
61760;Ilvesjoki;164;Jalasjärvi
12380;Leppäkoski;165;Janakkala
12400;Tervakoski;165;Janakkala
12450;Vähikkälä;165;Janakkala
13330;Harviala;165;Janakkala
14140;Jokimaa;165;Janakkala
14200;Turenki;165;Janakkala
14240;Väli-Janakkala;165;Janakkala
80100;Joensuu Keskus, Pohjoinen;167;Joensuu
80110;Joensuu Keskus Eteläinen;167;Joensuu
80130;Kanervala;167;Joensuu
80140;Noljakka;167;Joensuu
80160;Rantakylä-Latola;167;Joensuu
80170;Utra;167;Joensuu
80200;Niinivaara;167;Joensuu
80210;Sairaala-alue;167;Joensuu
80220;Penttilä;167;Joensuu
80230;Hukanhauta;167;Joensuu
80260;Kettuvaara;167;Joensuu
80330;Reijola;167;Joensuu
81200;Eno Keskus;167;Joensuu
81210;Louhioja;167;Joensuu
81260;Ahveninen;167;Joensuu
81270;Paukkaja;167;Joensuu
81280;Uimaharju;167;Joensuu
81290;Ukkola;167;Joensuu
81295;Haapalahti;167;Joensuu
81320;Kuismavaara;167;Joensuu
81330;Luhtapohja;167;Joensuu
81360;Sarvinki;167;Joensuu
81390;Revonkylä;167;Joensuu
82110;Heinävaara;167;Joensuu
82120;Keskijärvi;167;Joensuu
82140;Kiihtelysvaara Keskus;167;Joensuu
82160;Oskola;167;Joensuu
82170;Uskali;167;Joensuu
82180;Huhtilampi;167;Joensuu
82200;Hammaslahti;167;Joensuu
82210;Suhmura;167;Joensuu
82220;Niittylahti;167;Joensuu
82710;Kovero;167;Joensuu
82730;Tuupovaara Keskus-Pirttiaho;167;Joensuu
82750;Öllölä;167;Joensuu
82760;Hoilola;167;Joensuu
82815;Marjovaara;167;Joensuu
82840;Pirttiaho;167;Joensuu
82850;Kinnasniemi;167;Joensuu
82865;Kokinvaara-Mannervaara;167;Joensuu
82870;Luutalahti;167;Joensuu
82880;Mannervaara;167;Joensuu
31600;Jokioinen Keskus;169;Jokioinen
31610;Vaulammi;169;Jokioinen
31620;Latovainio;169;Jokioinen
31630;Minkiö;169;Jokioinen
22120;Möckelö;170;Jomala
22130;Gottby;170;Jomala
22140;Önningby;170;Jomala
22150;Jomala Centrum;170;Jomala
77460;Maavesi;171;Joroinen
77480;Savuniemi;171;Joroinen
78880;Kuvansi;171;Joroinen
79600;Joroinen Keskus;171;Joroinen
79620;Huutokoski;171;Joroinen
79630;Kolma;171;Joroinen
79660;Kerisalo;171;Joroinen
79680;Lahnalahti;171;Joroinen
79690;Kaitainen;171;Joroinen
19650;Joutsa Keskus;172;Joutsa
19670;Mieskonmäki;172;Joutsa
19920;Pappinen;172;Joutsa
41710;Rutalahti-Kivisuo;172;Joutsa
41730;Kivisuo;172;Joutsa
41750;Havumäki;172;Joutsa
41770;Leivonmäki;172;Joutsa
73460;Muuruvesi;174;Juankoski
73470;Västinniemi;174;Juankoski
73500;Juankoski Keskus;174;Juankoski
73710;Viitaniemi;174;Juankoski
73730;Losomäki;174;Juankoski
73770;Säyneinen-Ala-Siikajärvi;174;Juankoski
83870;Polvela-Timovaara;176;Juuka
83880;Kajoo;176;Juuka
83900;Juuka Keskus;176;Juuka
83910;Paalasmaa;176;Juuka
83915;Vihtasuo;176;Juuka
83940;Nunnanlahti;176;Juuka
83950;Ahmovaara;176;Juuka
83985;Tuopanjoki;176;Juuka
35500;Korkeakoski;177;Juupajoki
35520;Pirttikangas;177;Juupajoki
35530;Lyly;177;Juupajoki
35540;Juupajoki;177;Juupajoki
35550;Salokunta;177;Juupajoki
51760;Nuutilanmäki;178;Juva
51780;Kuosmala;178;Juva
51810;Maivala;178;Juva
51820;Hatsola;178;Juva
51850;Vuorenmaa;178;Juva
51860;Narila;178;Juva
51880;Koikkala;178;Juva
51890;Risulahti;178;Juva
51900;Juva Keskus;178;Juva
51930;Paatela;178;Juva
51940;Härkälä;178;Juva
51980;Lauteala;178;Juva
40100;Jyväskylä Keskus;179;Jyväskylä
40200;Mannila-Taulumäki;179;Jyväskylä
40250;Ritoniemi-Lohikoski;179;Jyväskylä
40270;Pappilanrinne-Pappilanvuori;179;Jyväskylä
40320;Seppälän Teollisuusalue;179;Jyväskylä
40340;Huhtasuo;179;Jyväskylä
40400;Halssila;179;Jyväskylä
40420;Jyskä;179;Jyväskylä
40500;Keljo-Ristonmaa;179;Jyväskylä
40520;Kuokkala-Ristikivi;179;Jyväskylä
40530;Keljonkangas;179;Jyväskylä
40600;Mattilanpelto;179;Jyväskylä
40620;Keskussairaala-alue-Kukkumäki;179;Jyväskylä
40630;Kypärämäki;179;Jyväskylä
40640;Keltinmäki;179;Jyväskylä
40660;Länsi-Palokka;179;Jyväskylä
40700;Mäki-Matti;179;Jyväskylä
40720;Nisula;179;Jyväskylä
40740;Kortepohja;179;Jyväskylä
40800;Vaajakoski;179;Jyväskylä
40820;Vuoritsalo;179;Jyväskylä
40900;Säynätsalo;179;Jyväskylä
41120;Puuppola;179;Jyväskylä
41140;Kuikka;179;Jyväskylä
41160;Tikkakoski;179;Jyväskylä
41450;Leppälahti;179;Jyväskylä
41630;Oravasaari;179;Jyväskylä
41800;Korpilahti Keskus;179;Jyväskylä
41820;Saakoski;179;Jyväskylä
41840;Moksi;179;Jyväskylä
41860;Rannila;179;Jyväskylä
41870;Putkilahti;179;Jyväskylä
41880;Oittila;179;Jyväskylä
41930;Kuohu;179;Jyväskylä
41940;Vesanka;179;Jyväskylä
38800;Jämijärvi Keskus;181;Jämijärvi
38860;Suurimaa;181;Jämijärvi
35400;Länkipohja;182;Jämsä
35600;Halli;182;Jämsä
35610;Pihlaisto;182;Jämsä
35630;Suinula-Valkamanperä;182;Jämsä
35820;Asemakulma-Mustalahti;182;Jämsä
42100;Jämsä Keskus;182;Jämsä
42140;Juokslahti;182;Jämsä
42220;Kaipola;182;Jämsä
42300;Jämsänkoski Keskus;182;Jämsä
42330;Haavisto;182;Jämsä
42440;Koskenpää;182;Jämsä
04400;Loutti;186;Järvenpää
04410;Järvenpää Keskus;186;Järvenpää
04420;Kyrölä;186;Järvenpää
04430;Kinnari-Mikonkorpi;186;Järvenpää
04440;Jamppa;186;Järvenpää
04460;Nummenkylä;186;Järvenpää
04480;Haarajoki;186;Järvenpää
20660;Littoinen;202;Kaarina
20760;Piispanristi;202;Kaarina
20780;Kaarina Keskus;202;Kaarina
21500;Piikkiö;202;Kaarina
21620;Kuusisto;202;Kaarina
73600;Kaavi Keskus;204;Kaavi
73620;Kortteinen-Rasilampi;204;Kaavi
73640;Sivakkavaara;204;Kaavi
73645;Niinivaara-Onnivaara;204;Kaavi
73670;Luikonlahti;204;Kaavi
87100;Kajaani Keskus;205;Kajaani
87150;Purola;205;Kajaani
87200;Teppana;205;Kajaani
87250;Kättö-Kätönlahti;205;Kajaani
87300;Palokangas;205;Kajaani
87400;Petäisenniska;205;Kajaani
87500;Lehtikangas;205;Kajaani
87700;Lohtaja-Kettu;205;Kajaani
87800;Vuoreslahti;205;Kajaani
87830;Nakertaja;205;Kajaani
87850;Paltaniemi;205;Kajaani
87900;Karankalahti;205;Kajaani
87910;Linnantaus;205;Kajaani
87930;Salmijärvi;205;Kajaani
87950;Kuluntalahti;205;Kajaani
87970;Jormua;205;Kajaani
88200;Otanmäki-Kytökoski;205;Kajaani
88270;Vuolijoki Keskus;205;Kajaani
68100;Himanka Keskus;208;Kalajoki
68150;Hillilä;208;Kalajoki
85100;Kalajoki Keskus;208;Kalajoki
85120;Metsä;208;Kalajoki
85140;Tynkä;208;Kalajoki
85150;Typpö;208;Kalajoki
85160;Rautio;208;Kalajoki
85180;Rahja;208;Kalajoki
36100;Kangasala Asemanseutu;211;Kangasala
36110;Ruutana;211;Kangasala
36120;Suinula-Haviseva;211;Kangasala
36200;Kangasala Keskus;211;Kangasala
36220;Suorama;211;Kangasala
36240;Nattari;211;Kangasala
36270;Huutijärvi;211;Kangasala
36280;Pikonlinna;211;Kangasala
36340;Tohkala;211;Kangasala
36420;Sahalahti Keskus;211;Kangasala
36430;Pakkala;211;Kangasala
36520;Raikku;211;Kangasala
36570;Kaivanto;211;Kangasala
36810;Kuhmalahti Keskus;211;Kangasala
36840;Kuhmajärvi;211;Kangasala
36880;Vehkajärvi;211;Kangasala
51200;Kangasniemi Keskus;213;Kangasniemi
51260;Tahkomäki;213;Kangasniemi
51270;Kutemajärvi;213;Kangasniemi
51310;Levä;213;Kangasniemi
51335;Kaihlamäki;213;Kangasniemi
51340;Hännilä-Särkiharju;213;Kangasniemi
51360;Koivula-Synsiö;213;Kangasniemi
51380;Synsiö;213;Kangasniemi
51430;Läsäkoski;213;Kangasniemi
51440;Vuojalahti;213;Kangasniemi
51460;Luusniemi;213;Kangasniemi
38700;Kankaanpää Keskus;214;Kankaanpää
38710;Myllymäki;214;Kankaanpää
38720;Vihteljärvi;214;Kankaanpää
38740;Hapuoja;214;Kankaanpää
38750;Veneskoski;214;Kankaanpää
38760;Venesjärvi;214;Kankaanpää
38770;Lohikko;214;Kankaanpää
38840;Niinisalo;214;Kankaanpää
38910;Ala-Honkajoki;214;Kankaanpää
43300;Kannonkoski Keskus;216;Kannonkoski
43340;Kannonjärvi;216;Kannonkoski
69100;Kannus Keskus;217;Kannus
69150;Eskola;217;Kannus
69170;Yli-Kannus;217;Kannus
64350;Karijoki Keskus;218;Karijoki
64370;Myrkky;218;Karijoki
03600;Karkkila Keskus;224;Karkkila
03620;Polari;224;Karkkila
03710;Uusitalo;224;Karkkila
43490;Kangasaho;226;Karstula
43500;Karstula Keskus;226;Karstula
43520;Kiminki;226;Karstula
43540;Rantakylä-Pirttilahti;226;Karstula
43560;Vahanka;226;Karstula
43610;Aho;226;Karstula
43640;Humppi;226;Karstula
43660;Vastinki;226;Karstula
39920;Suomijärvi;230;Karvia
39930;Karvia Keskus;230;Karvia
39940;Kantti;230;Karvia
39960;Sarvela;230;Karvia
39965;Karviankylä;230;Karvia
39980;Sara;230;Karvia
39990;Alkkia;230;Karvia
64260;Kaskinen;231;Kaskinen
61800;Kauhajoki Keskus;232;Kauhajoki
61810;Luomankylä;232;Kauhajoki
61820;Kainasto;232;Kauhajoki
61850;Kauhajoki Asemanseutu;232;Kauhajoki
61860;Harja;232;Kauhajoki
61880;Ikkeläjärvi;232;Kauhajoki
61910;Nummijärvi;232;Kauhajoki
61920;Nummikoski;232;Kauhajoki
61940;Hyyppä;232;Kauhajoki
61950;Juonikylä;232;Kauhajoki
61960;Kyrönlatva;232;Kauhajoki
61980;Päntäne;232;Kauhajoki
62150;Rintakangas;233;Kauhava
62200;Kauhava Keskus;233;Kauhava
62220;Pernaa;233;Kauhava
62230;Jylhä;233;Kauhava
62240;Huhmarkoski;233;Kauhava
62260;Hirvijoki;233;Kauhava
62300;Härmä;233;Kauhava
62310;Voltti;233;Kauhava
62340;Kuoppa-Vakkuri;233;Kauhava
62350;Ekola;233;Kauhava
62370;Kangasto;233;Kauhava
62375;Ylihärmä Keskus-Vesiluoma;233;Kauhava
62380;Kosolankylä;233;Kauhava
62410;Rintala;233;Kauhava
62420;Kortesjärvi Keskus;233;Kauhava
62430;Peltotupa;233;Kauhava
62435;Pirttinen;233;Kauhava
62440;Perkiömäki;233;Kauhava
62470;Purmojärvi;233;Kauhava
02700;Suur-Kauniainen;235;Kauniainen
69600;Kaustinen Keskus;236;Kaustinen
69660;Köyhäjoki;236;Kaustinen
72600;Keitele Keskus;239;Keitele
72630;Kuusela-Rajala;239;Keitele
72930;Tossavanlahti;239;Keitele
72950;Porttila;239;Keitele
94100;Kemi Keskus;240;Kemi
94200;Torvinen-Vainio;240;Kemi
94300;Pajusaari;240;Kemi
94600;Ristikangas-Kivikko;240;Kemi
94700;Takajärvi-Haukkari;240;Kemi
94720;Peurasaari;240;Kemi
94800;Veitsiluoto;240;Kemi
94830;Pikku Berliini-Hepola;240;Kemi
94900;Ajos;240;Kemi
94400;Keminmaa Keskus;241;Keminmaa
94450;Lassila-Jokisuu;241;Keminmaa
94500;Lautiosaari;241;Keminmaa
95310;Liedakkala;241;Keminmaa
95315;Törmä;241;Keminmaa
95365;Maula;241;Keminmaa
95370;Itäkoski;241;Keminmaa
90440;Kempele Keskus;244;Kempele
90450;Honkanen;244;Kempele
04200;Kerava Keskus;245;Kerava
04220;Ahjo-Kaskela;245;Kerava
04230;Pihkaniitty;245;Kerava
04250;Alikerava;245;Kerava
04260;Savio;245;Kerava
41970;Huttula;249;Keuruu
42520;Asunta;249;Keuruu
42560;Pohjoisjärvi;249;Keuruu
42700;Keuruu Keskus;249;Keuruu
42720;Valkealahti;249;Keuruu
42800;Haapamäki;249;Keuruu
42820;Riiho;249;Keuruu
42910;Pihlajavesi;249;Keuruu
42930;Katajamäki;249;Keuruu
39810;Linnankylä;250;Kihniö
39820;Kihniö Keskus;250;Kihniö
39880;Kihniö Asemanseutu;250;Kihniö
43900;Kinnula Keskus;256;Kinnula
43940;Muhola-Saarensalmi;256;Kinnula
43960;Saarensalmi;256;Kinnula
02400;Kirkkonummi Keskus;257;Kirkkonummi
02410;Gesterby;257;Kirkkonummi
02420;Jorvas;257;Kirkkonummi
02430;Masala;257;Kirkkonummi
02440;Luoma;257;Kirkkonummi
02450;Sundsberg;257;Kirkkonummi
02460;Kantvik;257;Kirkkonummi
02470;Upinniemi;257;Kirkkonummi
02480;Porkkala;257;Kirkkonummi
02510;Oitmäki;257;Kirkkonummi
02520;Lapinkylä;257;Kirkkonummi
02540;Kylmälä;257;Kirkkonummi
02550;Evitskog;257;Kirkkonummi
02880;Veikkola;257;Kirkkonummi
58350;Villala;260;Kitee
59800;Kesälahti Keskus;260;Kitee
59810;Suurikylä;260;Kitee
59820;Purujärvi-Rajavaara;260;Kitee
82380;Tolosenmäki;260;Kitee
82395;Haarajärvi;260;Kitee
82430;Puhos-Leinovaara;260;Kitee
82460;Hummovaara;260;Kitee
82490;Heinoniemi;260;Kitee
82500;Kitee Keskus;260;Kitee
82510;Kiteenlahti;260;Kitee
82580;Juurikka;260;Kitee
82590;Närsäkkälä;260;Kitee
97420;Lohiniva;261;Kittilä
97470;Alakylä-Sailehto;261;Kittilä
97999;Köngäs;261;Kittilä
99100;Kittilä Keskus;261;Kittilä
99110;Kaukonen;261;Kittilä
99120;Kallo;261;Kittilä
99130;Sirkka-Rauhala;261;Kittilä
99135;Rauhala;261;Kittilä
99140;Köngäs-Hanhivaara;261;Kittilä
99150;Tepasto;261;Kittilä
99160;Lompolo-Pulju;261;Kittilä
99170;Pulju;261;Kittilä
99180;Rautusjärvi;261;Kittilä
99190;Hanhimaa;261;Kittilä
99195;Pokka;261;Kittilä
99230;Jeesiöjärvi;261;Kittilä
99240;Kuivasalmi;261;Kittilä
99250;Kiistala-Jeesiöjärvi;261;Kittilä
99270;Hormakumpu;261;Kittilä
99280;Tepsa;261;Kittilä
99290;Kelontekemä;261;Kittilä
99340;Raattama-Pallastunturi;261;Kittilä
74610;Honkaranta;263;Kiuruvesi
74630;Heinäkylä;263;Kiuruvesi
74640;Sulkavanjärvi;263;Kiuruvesi
74670;Rapakkojoki;263;Kiuruvesi
74680;Myllyniemi;263;Kiuruvesi
74700;Kiuruvesi Keskus;263;Kiuruvesi
74720;Niemiskylä;263;Kiuruvesi
74740;Aittojärvi;263;Kiuruvesi
74770;Kalliokylä;263;Kiuruvesi
74840;Koppeloharju;263;Kiuruvesi
74940;Remeskylä-Tihilänkangas;263;Kiuruvesi
74980;Tihilänkangas;263;Kiuruvesi
43390;Lokakylä;265;Kivijärvi
43800;Kivijärvi Keskus-Sompala;265;Kivijärvi
43840;Sompala;265;Kivijärvi
32800;Kokemäki Keskus;271;Kokemäki
32810;Peipohja;271;Kokemäki
32830;Riste;271;Kokemäki
32860;Korkeaoja;271;Kokemäki
32910;Kauvatsa Asemanseutu;271;Kokemäki
32920;Kauvatsa;271;Kokemäki
67100;Kokkola Keskus;272;Kokkola
67200;Kiviniitty-Tullimäki;272;Kokkola
67300;Halkokari;272;Kokkola
67400;Rytimäki;272;Kokkola
67410;Vitsari;272;Kokkola
67500;Sokoja;272;Kokkola
67600;Linnusperä-Kaustari;272;Kokkola
67700;Kirkonmäki-Isokylä;272;Kokkola
67800;Koivuhaka;272;Kokkola
67900;Ykspihjala;272;Kokkola
68210;Marinkainen;272;Kokkola
68220;Karhi;272;Kokkola
68230;Lohtaja Keskus;272;Kokkola
68240;Ala-Viirre;272;Kokkola
68300;Kälviä Keskus;272;Kokkola
68320;Ruotsalo;272;Kokkola
68370;Ullava Keskus;272;Kokkola
68380;Yli-Ullava;272;Kokkola
68390;Rahkonen;272;Kokkola
68550;Öja;272;Kokkola
68999;Rita;272;Kokkola
95800;Sieppijärvi-Taapajärvi;273;Kolari
95830;Vaattojärvi;273;Kolari
95840;Venejärvenkylä;273;Kolari
95850;Ruokojärvi;273;Kolari
95860;Pasmajärvi;273;Kolari
95900;Kolari Keskus;273;Kolari
95920;Saaripudas;273;Kolari
95930;Äkäsjoensuu;273;Kolari
95970;Äkäslompolo;273;Kolari
95980;Ylläsjärvi;273;Kolari
95990;Kurtakko;273;Kolari
97430;Taapajärvi;273;Kolari
44300;Konnevesi Keskus;275;Konnevesi
44320;Sirkkamäki;275;Konnevesi
44330;Hytölä;275;Konnevesi
44350;Istunmäki;275;Konnevesi
44370;Mäntymäki;275;Konnevesi
80510;Onttola-Kunnasniemi;276;Kontiolahti
80710;Lehmo;276;Kontiolahti
80770;Kontiolahti as;276;Kontiolahti
80780;Kontioniemi;276;Kontiolahti
80790;Kontioranta-Kontioniemi;276;Kontiolahti
80850;Paihola;276;Kontiolahti
80910;Kulho;276;Kontiolahti
81100;Kontiolahti;276;Kontiolahti
81120;Katajaranta;276;Kontiolahti
81160;Romppala-Riihikangas;276;Kontiolahti
81220;Jakokoski;276;Kontiolahti
81230;Mönni;276;Kontiolahti
81235;Lehtoi;276;Kontiolahti
66200;Korsnäs Keskus;280;Korsnäs
66210;Moikipää;280;Korsnäs
66230;Korsbäck;280;Korsnäs
66280;Taklax;280;Korsnäs
66290;Harrström;280;Korsnäs
16800;Hämeenkoski;283;Hämeenkoski
31500;Koski Tl;284;Koski Tl
46930;Huruksela;285;Kotka
48100;Kotkansaari;285;Kotka
48130;Katariina;285;Kotka
48200;Hovinsaari;285;Kotka
48210;Toukolan Sairaala-Alue;285;Kotka
48220;Metsola;285;Kotka
48230;Korela-Jylppy;285;Kotka
48300;Ruonala;285;Kotka
48310;Mussalo;285;Kotka
48350;Karhuvuori;285;Kotka
48400;Sutela;285;Kotka
48410;Kaukola;285;Kotka
48600;Karhula;285;Kotka
48700;Kyminlinna;285;Kotka
48710;Koivula;285;Kotka
48720;Kymi;285;Kotka
48750;Nikeli;285;Kotka
48770;Ristinkallio;285;Kotka
48800;Otsola-Mäntykangas;285;Kotka
48810;Rantahaka;285;Kotka
48900;Sunila;285;Kotka
48910;Suulisniemi;285;Kotka
48930;Tiutinen;285;Kotka
49300;Tavastila;285;Kotka
49340;Juurikorpi;285;Kotka
45100;Kouvola Keskus;286;Kouvola
45120;Kotkankallio-Vahteranmäki;286;Kouvola
45130;Korjala-Kaunisnurmi;286;Kouvola
45150;Kankaronmäki-Eskolanmäki;286;Kouvola
45160;Lehtomäki;286;Kouvola
45200;Tornionmäki;286;Kouvola
45330;Harju;286;Kouvola
45360;Kukkuramäki;286;Kouvola
45370;Valkeala kk;286;Kouvola
45410;Utti;286;Kouvola
45460;Savero;286;Kouvola
45610;Koria;286;Kouvola
45700;Kuusankoski Keskus;286;Kouvola
45720;Kotiharju-Ruhjonmäki;286;Kouvola
45740;Maunuksela;286;Kouvola
45750;Kuusankosken Sairaala-alue;286;Kouvola
45810;Pilkanmaa;286;Kouvola
45910;Voikkaa;286;Kouvola
45940;Oravala;286;Kouvola
46110;Tuohikotti;286;Kouvola
46140;Vekaranjärvi;286;Kouvola
46230;Aro;286;Kouvola
46400;Kaipiainen;286;Kouvola
46430;Tirva-Inkerilä;286;Kouvola
46450;Enäjärvi;286;Kouvola
46570;Saaramaa;286;Kouvola
46710;Sippola;286;Kouvola
46730;Ruotila;286;Kouvola
46750;Liikkala;286;Kouvola
46800;Myllykoski;286;Kouvola
46810;Ummeljoki;286;Kouvola
46860;Anjalankoski Keskus;286;Kouvola
46900;Inkeroinen;286;Kouvola
46910;Anjala;286;Kouvola
46950;Ahvio;286;Kouvola
46960;Muhniemi;286;Kouvola
47110;Löytty;286;Kouvola
47150;Raussila;286;Kouvola
47200;Elimäki kk;286;Kouvola
47260;Ratula;286;Kouvola
47650;Kimola;286;Kouvola
47710;Jaala kk;286;Kouvola
47760;Huhdasjärvi;286;Kouvola
47810;Selänpää;286;Kouvola
47830;Hasula;286;Kouvola
47850;Verla;286;Kouvola
47900;Vuohijärvi;286;Kouvola
47910;Hillosensalmi;286;Kouvola
64100;Kristiinankaupunki Keskus;287;Kristiinankaupunki
64140;Tiukka;287;Kristiinankaupunki
64300;Lapväärtti;287;Kristiinankaupunki
64320;Dagsmark;287;Kristiinankaupunki
64440;Metsälä-Kallträsk;287;Kristiinankaupunki
64450;Kallträsk;287;Kristiinankaupunki
64460;Härkmeri;287;Kristiinankaupunki
64480;Skaftung;287;Kristiinankaupunki
64490;Siipyy;287;Kristiinankaupunki
68410;Alaveteli;288;Kruunupyy
68500;Kruunupyy Keskus;288;Kruunupyy
68700;Teerijärvi;288;Kruunupyy
68750;Smäbönders;288;Kruunupyy
88730;Ylä-Vieksi;290;Kuhmo
88740;Härmänkylä-Iivantiira;290;Kuhmo
88760;Iivantiira;290;Kuhmo
88820;Katerma;290;Kuhmo
88900;Kuhmo Keskus;290;Kuhmo
88930;Lentiira-Kuumu;290;Kuhmo
88940;Kuumu;290;Kuhmo
17780;Harmoinen;291;Kuhmoinen
17800;Kuhmoinen Keskus;291;Kuhmoinen
17840;Harjunsalmi;291;Kuhmoinen
17850;Pihlajakoski;291;Kuhmoinen
17870;Ruolahti;291;Kuhmoinen
17930;Päijälä;291;Kuhmoinen
17950;Kylämä;291;Kuhmoinen
17970;Puukkoinen;291;Kuhmoinen
22810;Seglinge;295;Kumlinge
22820;Kumlinge;295;Kumlinge
22830;Enklinge;295;Kumlinge
70100;Kuopio Keskus;297;Kuopio
70110;Etu-Niirala;297;Kuopio
70150;Neulamäki;297;Kuopio
70200;Puijonlaakso;297;Kuopio
70210;Kuopion Keskussairaala-alue;297;Kuopio
70240;Niuvaniemen Sairaala-alue;297;Kuopio
70260;Julkula;297;Kuopio
70280;Länsi-Puijo;297;Kuopio
70300;Linnanpelto;297;Kuopio
70340;Inkilänmäki;297;Kuopio
70400;Kettulanlahti;297;Kuopio
70420;Päiväranta;297;Kuopio
70460;Saarijärvi;297;Kuopio
70500;Männistö;297;Kuopio
70600;Niirala-Huuhanmäki;297;Kuopio
70620;Haapaniemi;297;Kuopio
70700;Särkiniemi;297;Kuopio
70780;Jynkkä;297;Kuopio
70800;Pitkälahti;297;Kuopio
70820;Litmanen;297;Kuopio
70840;Jynkänmäki;297;Kuopio
70870;Hiltulanlahti;297;Kuopio
70940;Jännevirta;297;Kuopio
71130;Kortejoki;297;Kuopio
71150;Vartiala;297;Kuopio
71160;Riistavesi;297;Kuopio
71310;Vehmersalmi Keskus;297;Kuopio
71330;Räsälä;297;Kuopio
71360;Litmaniemi;297;Kuopio
71380;Mustinlahti;297;Kuopio
71480;Kurkimäki;297;Kuopio
71490;Airaksela;297;Kuopio
71520;Kaislastenlahti;297;Kuopio
71570;Syvänniemi;297;Kuopio
71610;Salonkulma;297;Kuopio
71650;Hirvilahti-Salonkulma;297;Kuopio
71660;Leinolanlahti;297;Kuopio
71670;Kurolanlahti;297;Kuopio
71680;Pulkonkoski-Saarinen;297;Kuopio
71690;Varpasmaa;297;Kuopio
71720;Käärmelahti;297;Kuopio
71730;Kinnulanlahti;297;Kuopio
71740;Tavinsalmi;297;Kuopio
71745;Haatala;297;Kuopio
71750;Maaninka Keskus;297;Kuopio
71760;Ahkionlahti-Vianta;297;Kuopio
71775;Tuovilanlahti-Haatala;297;Kuopio
71950;Lammasaho;297;Kuopio
72100;Karttula Keskus;297;Kuopio
72140;Itä-Karttula-Riuttasenpää;297;Kuopio
72490;Saarinen;297;Kuopio
73300;Nilsiä Keskus;297;Kuopio
73310;Tahkovuori;297;Kuopio
73320;Reittiö;297;Kuopio
73350;Haluna;297;Kuopio
73360;Pajulahti;297;Kuopio
73410;Pieksänkoski;297;Kuopio
73810;Palonurmi-Aholansaari;297;Kuopio
73830;Keski-Siikajärvi;297;Kuopio
63100;Kuortane Keskus;300;Kuortane
63120;Leppälänkylä;300;Kuortane
63130;Mäyry;300;Kuortane
63150;Ruona;300;Kuortane
63160;Salmi;300;Kuortane
63230;Lentilä;300;Kuortane
63250;Rantala;300;Kuortane
63450;Löyä;300;Kuortane
61220;Myllysalo;301;Kurikka
61230;Luopa;301;Kurikka
61300;Kurikka Keskus;301;Kurikka
61310;Panttila;301;Kurikka
61360;Mieto;301;Kurikka
61370;Lohiluoma;301;Kurikka
61380;Polvenkylä;301;Kurikka
66300;Jurva Keskus;301;Kurikka
66320;Niemenkylä;301;Kurikka
66330;Hakko;301;Kurikka
66340;Sarvijoki;301;Kurikka
66350;Tainus;301;Kurikka
66360;Kesti;301;Kurikka
66370;Närvijoki;301;Kurikka
23360;Kustavi;304;Kustavi
93600;Kuusamo Keskus;305;Kuusamo
93630;Kuoliovaara;305;Kuusamo
93680;Vasaraperä;305;Kuusamo
93730;Poussu;305;Kuusamo
93760;Kemilä-Murtovaara-Teeriranta;305;Kuusamo
93780;Teeriranta;305;Kuusamo
93820;Aikkila-Rukatunturi;305;Kuusamo
93825;Rukatunturi;305;Kuusamo
93840;Patoniemi;305;Kuusamo
93850;Käylä-Patoniemi;305;Kuusamo
93920;Määttälänvaara;305;Kuusamo
93940;Vuotunki;305;Kuusamo
93990;Kärpänkylä;305;Kuusamo
93999;Kuusamo;305;Kuusamo
83500;Outokumpu Keskus;309;Outokumpu
83550;Kokonvaara;309;Outokumpu
83630;Kuusjärvi;309;Outokumpu
83660;Varislahti;309;Outokumpu
43700;Kyyjärvi Keskus;312;Kyyjärvi
43720;Kumpulainen;312;Kyyjärvi
16540;Mertie;316;Kärkölä
16600;Järvelä;316;Kärkölä
16610;Kärkölä kk;316;Kärkölä
16670;Lappila;316;Kärkölä
86710;Kärsämäki Keskus;317;Kärsämäki
86790;Venetpalo;317;Kärsämäki
22730;Kökar;318;Kökar
27710;Köyliö Keskus;319;Köyliö
27730;Tuiskula;319;Köyliö
27740;Voitoinen;319;Köyliö
27750;Yttilä;319;Köyliö
27840;Kakkuri;319;Köyliö
27860;Vuori;319;Köyliö
97590;Raajärvi;320;Kemijärvi
97645;Juujärvi;320;Kemijärvi
98100;Kemijärvi Keskus;320;Kemijärvi
98120;Särkikangas;320;Kemijärvi
98230;Luusua-Karsimus;320;Kemijärvi
98310;Karvakko;320;Kemijärvi
98350;Tapionniemi;320;Kemijärvi
98360;Vuostimo;320;Kemijärvi
98400;Isokylä-Ryti-Lehtola;320;Kemijärvi
98420;Ryti-Lehtola;320;Kemijärvi
98440;Kallaanvaara;320;Kemijärvi
98450;Kostamo;320;Kemijärvi
98710;Joutsijärvi;320;Kemijärvi
98720;Suomutunturi;320;Kemijärvi
25650;Strömma;322;Kemiönsaari
25700;Kemiö Keskus;322;Kemiönsaari
25710;Vreta-Vestlax;322;Kemiönsaari
25730;Mjösund;322;Kemiönsaari
25760;Kiila;322;Kemiönsaari
25810;Mark;322;Kemiönsaari
25820;Vestlax;322;Kemiönsaari
25830;Västanfjärd Keskus;322;Kemiönsaari
25840;Nivelax;322;Kemiönsaari
25860;Björkboda;322;Kemiönsaari
25870;Dragsfjärd;322;Kemiönsaari
25900;Taalintehdas;322;Kemiönsaari
25910;Vänoxa;322;Kemiönsaari
25930;Kasnäs;322;Kemiönsaari
25940;Hiittinen;322;Kemiönsaari
25950;Rosala-Kasnäs-Hitis;322;Kemiönsaari
25960;Högsära;322;Kemiönsaari
15100;Lahti Asemanseutu;398;Lahti
15110;Keski-Lahti;398;Lahti
15140;Kartano-Paavola;398;Lahti
15150;Möysä;398;Lahti
15160;Kolava;398;Lahti
15170;Tenava-Tonttila;398;Lahti
15200;Kiveriö;398;Lahti
15210;Kivistönmäki;398;Lahti
15230;Kytölä;398;Lahti
15240;Mukkula;398;Lahti
15300;Myllypohja-Koiskala;398;Lahti
15320;Ahtiala;398;Lahti
15340;Kunnas-Hiekkanummi;398;Lahti
15500;Liipola;398;Lahti
15520;Saksala;398;Lahti
15610;Laune-Nikkilä;398;Lahti
15680;Renkomäki-Ämmälä;398;Lahti
15700;Hennala-Jokimaa;398;Lahti
15800;Kärpänen;398;Lahti
15810;Kasakkamäki;398;Lahti
15830;Metsäkangas;398;Lahti
15840;Riihelä;398;Lahti
15850;Likolampi;398;Lahti
15900;Jalkaranta;398;Lahti
15950;Kiikkula;398;Lahti
66400;Laihia Keskus;399;Laihia
66420;Ruto;399;Laihia
66430;Vedenoja;399;Laihia
66450;Jakkula;399;Laihia
66460;Haapala;399;Laihia
66470;Jukaja-Jokisalo;399;Laihia
23800;Laitila Keskus;400;Laitila
23840;Soukainen;400;Laitila
23880;Suontaka;400;Laitila
71910;Alapitkä;402;Lapinlahti
71920;Pajujärvi;402;Lapinlahti
71960;Lukkarila;402;Lapinlahti
73100;Lapinlahti Keskus;402;Lapinlahti
73110;Mäntylahti-Karvasalmi;402;Lapinlahti
73120;Nerkoo-Horsmanmäki;402;Lapinlahti
73200;Varpaisjärvi Keskus;402;Lapinlahti
73230;Syvärinpää;402;Lapinlahti
73250;Korpijärvi;402;Lapinlahti
74470;Paloinen;402;Lapinlahti
62600;Lappajärvi Keskus;403;Lappajärvi
62610;Tarvola;403;Lappajärvi
62620;Ala-Seppä;403;Lappajärvi
62630;Karvala;403;Lappajärvi
62640;Savonkylä;403;Lappajärvi
62660;Itäkylä;403;Lappajärvi
53100;Lappeenranta keskus;405;Lappeenranta
53130;Keskussairaala-alue-Kimpinen;405;Lappeenranta
53200;Kaukas-Tirilä;405;Lappeenranta
53300;Lauritsala-Mälkiä;405;Lappeenranta
53400;Laihia;405;Lappeenranta
53420;Mustola;405;Lappeenranta
53500;Parkkarila-Harapainen-Reijola;405;Lappeenranta
53550;Kourulanmäki;405;Lappeenranta
53600;Kesämäki;405;Lappeenranta
53650;Mattila-Kuusela;405;Lappeenranta
53810;Kuusimäki-Lavola;405;Lappeenranta
53830;Rutola;405;Lappeenranta
53850;Skinnarila;405;Lappeenranta
53900;Pallo-Tysterniemi-Leiri;405;Lappeenranta
53920;Voisalmi;405;Lappeenranta
53950;Kivisalmi;405;Lappeenranta
54100;Joutseno Keskus;405;Lappeenranta
54110;Lampikangas;405;Lappeenranta
54120;Pulp;405;Lappeenranta
54190;Konnunsuo;405;Lappeenranta
54230;Nuijamaa;405;Lappeenranta
54250;Rapattila;405;Lappeenranta
54260;Hanhijärvi;405;Lappeenranta
54270;Vainikkala;405;Lappeenranta
54300;Vilkjärvi;405;Lappeenranta
54310;Hytti;405;Lappeenranta
54330;Simola;405;Lappeenranta
54390;Pulsa;405;Lappeenranta
54410;Ylämaa Keskus;405;Lappeenranta
54430;Hujakkala;405;Lappeenranta
54460;Ylijärvi;405;Lappeenranta
55300;Rauha-Tiuruniemi;405;Lappeenranta
55320;Rauha;405;Lappeenranta
55330;Tiuruniemi;405;Lappeenranta
07800;Lapinjärvi Keskus;407;Lapinjärvi
07810;Ingermaninkylä;407;Lapinjärvi
07820;Porlammi;407;Lapinjärvi
07830;Pukaro;407;Lapinjärvi
07840;Lindkoski;407;Lapinjärvi
07850;Heikinkylä;407;Lapinjärvi
47350;Kimonkylä;407;Lapinjärvi
62100;Lapua Keskus;408;Lapua
62130;Hellanmaa;408;Lapua
62160;Karhunkylä;408;Lapua
62165;Tiisteenjoki;408;Lapua
62170;Lakaluoma;408;Lapua
62175;Ylikylä-Mäenpää;408;Lapua
62185;Mäki-Paavola;408;Lapua
62190;Ruha;408;Lapua
62280;Mustamaa;408;Lapua
62290;Hirvikylä;408;Lapua
62295;Kauhajärvi;408;Lapua
41180;Vehniä;410;Laukaa
41310;Leppävesi;410;Laukaa
41325;Laukkavirta;410;Laukaa
41330;Vihtavuori;410;Laukaa
41340;Laukaa Keskus;410;Laukaa
41350;Laukaa Asemanseutu;410;Laukaa
41360;Valkola;410;Laukaa
41370;Kuusa;410;Laukaa
41390;Äijälä;410;Laukaa
41400;Lievestuore;410;Laukaa
54710;Lemi Keskus;416;Lemi
54720;Laksiainen;416;Lemi
54820;Kotimäki;416;Lemi
54850;Kuukanniemi;416;Lemi
22160;Järsö;417;Lemland
22610;Lemland;417;Lemland
33880;Höytämö;418;Lempäälä
37500;Lempäälä Keskus;418;Lempäälä
37530;Säijä;418;Lempäälä
37550;Kuivaspää;418;Lempäälä
37560;Kulju;418;Lempäälä
37570;Koivuniemi;418;Lempäälä
71460;Paukarlahti;420;Leppävirta
71470;Oravikoski;420;Leppävirta
78480;Timola;420;Leppävirta
79100;Leppävirta Keskus;420;Leppävirta
79130;Sorsakoski;420;Leppävirta
79140;Kotalahti;420;Leppävirta
79150;Konnuslahti-Valkeamäki;420;Leppävirta
79160;Saamaiskylä;420;Leppävirta
79180;Tuppurinmäki;420;Leppävirta
79190;Valkeamäki;420;Leppävirta
79230;Moninmäki;420;Leppävirta
79255;Kurjala-Moninmäki;420;Leppävirta
79265;Puponmäki;420;Leppävirta
79330;Näädänmaa;420;Leppävirta
79350;Itä-Soisalo;420;Leppävirta
79410;Niinimäki;420;Leppävirta
69420;Syri;421;Lestijärvi
69440;Lestijärvi Keskus;421;Lestijärvi
69450;Yli-Lesti;421;Lestijärvi
81560;Vuonisjärvi;422;Lieksa
81570;Kelvä;422;Lieksa
81590;Vuonislahti;422;Lieksa
81650;Hattuvaara;422;Lieksa
81660;Lehmikylä;422;Lieksa
81700;Lieksa Keskus;422;Lieksa
81720;Mähkö-Timitra;422;Lieksa
81750;Pankakoski;422;Lieksa
81810;Jamali;422;Lieksa
81820;Kylänlahti;422;Lieksa
81850;Mätäsvaara;422;Lieksa
81860;Viekijärvi;422;Lieksa
81950;Pankajärvi;422;Lieksa
81970;Jongunjoki-Pankajärvi;422;Lieksa
83960;Koli;422;Lieksa
21350;Ilmarinen;423;Lieto
21360;Lieto Asemanseutu;423;Lieto
21410;Vanhalinna;423;Lieto
21420;Lieto Keskus;423;Lieto
21430;Yliskulma;423;Lieto
21450;Tarvasjoki Keskus;423;Lieto
91900;Liminka Keskus;425;Liminka
91910;Tupos;425;Liminka
91930;Ala-Temmes;425;Liminka
80400;Ylämylly;426;Liperi
83100;Liperi Keskus;426;Liperi
83130;Salokylä;426;Liperi
83140;Puromäki;426;Liperi
83150;Roukalahti;426;Liperi
83160;Tutjunniemi;426;Liperi
83320;Risti-Juojärvi;426;Liperi
83330;Kaatamo;426;Liperi
83340;Kaarnalampi;426;Liperi
83400;Viinijärvi;426;Liperi
83430;Käsämä;426;Liperi
83450;Vaivio;426;Liperi
83460;Harinjärvi;426;Liperi
83480;Ahonkylä;426;Liperi
31960;Orisuo;430;Loimaa
32200;Loimaa Keskus;430;Loimaa
32210;Loimaa kk;430;Loimaa
32250;Kojonkulma;430;Loimaa
32260;Kojonperä;430;Loimaa
32270;Metsämaa-Murto;430;Loimaa
32280;Metsäkorpi;430;Loimaa
32300;Mellilä;430;Loimaa
32410;Niinijoki;430;Loimaa
32430;Ylhäinen;430;Loimaa
32440;Alastaro Keskus;430;Loimaa
32450;Tammiainen;430;Loimaa
32560;Virttaa;430;Loimaa
12520;Kormu;433;Loppi
12540;Launonen;433;Loppi
12600;Läyliäinen;433;Loppi
12630;Sajaniemi;433;Loppi
12640;Joentaka;433;Loppi
12700;Loppi kk;433;Loppi
12750;Pilpala;433;Loppi
12820;Räyskälä;433;Loppi
12920;Topeno;433;Loppi
12950;Vojakkala-Eerolankulma;433;Loppi
07700;Koskenkylän saha-alue;434;Loviisa
07720;Malmgärd;434;Loviisa
07740;Gammelby;434;Loviisa
07750;Isnäs;434;Loviisa
07780;Härkäpää;434;Loviisa
07870;Skinnarby;434;Loviisa
07880;Liljendal Keskus;434;Loviisa
07890;Mickelspiltom;434;Loviisa
07900;Loviisa Keskus;434;Loviisa
07910;Valko;434;Loviisa
07920;Etelä-Harju;434;Loviisa
07930;Pernaja Kirkonkylä;434;Loviisa
07940;Määrlahti;434;Loviisa
07945;Kuggom;434;Loviisa
07955;Tesjoki;434;Loviisa
07960;Ahvenkoski;434;Loviisa
07970;Ruotsinpyhtää Keskus;434;Loviisa
07980;Kuninkaankylä;434;Loviisa
07990;Ruotsinkylä-Koskisto;434;Loviisa
19910;Tammijärvi;435;Luhanka
19950;Luhanka;435;Luhanka
91980;Lumijoki;436;Lumijoki
22630;Lumparland;438;Lumparland
68555;Bosund;440;Luoto
68560;Eugmo;440;Luoto
68570;Luoto;440;Luoto
68580;Furuholmen;440;Luoto
46530;Kannuskoski;441;Luumäki
54500;Taavetti-Somerharju;441;Luumäki
54510;Uro;441;Luumäki
54530;Luumäki;441;Luumäki
54550;Suo-Anttila;441;Luumäki
54580;Somerharju;441;Luumäki
54590;Kaitjärvi;441;Luumäki
29100;Luvia Keskus;442;Luvia
29180;Peränkylä;442;Luvia
03810;Ikkala;444;Lohja
03850;Pusula;444;Lohja
03870;Hyönölä;444;Lohja
08100;Lohja Keskus;444;Lohja
08150;Keskilohja;444;Lohja
08200;Ojamo;444;Lohja
08350;Routio;444;Lohja
08360;Kisakallio;444;Lohja
08450;Hormajärvi;444;Lohja
08480;Karstu;444;Lohja
08500;Ventelä-Millola;444;Lohja
08680;Muijala;444;Lohja
08700;Virkkala;444;Lohja
08800;Kirkniemi;444;Lohja
09120;Karjalohja;444;Lohja
09220;Sammatti;444;Lohja
09430;Saukkola;444;Lohja
09520;Millola;444;Lohja
09630;Koisjärvi;444;Lohja
09810;Nummi-Oinola;444;Lohja
09930;Leppäkorpi;444;Lohja
21600;Parainen Keskus;445;Parainen
21610;Kirjala;445;Parainen
21630;Lielahti;445;Parainen
21650;Lillandet;445;Parainen
21660;Nauvo Keskus;445;Parainen
21670;Mattnäs-Nötö;445;Parainen
21680;Nötö;445;Parainen
21710;Korppoo Keskus-Utö;445;Parainen
21720;Korpoström;445;Parainen
21740;Utö;445;Parainen
21750;Norrskata;445;Parainen
21760;Houtskär Keskus;445;Parainen
21770;Mossala;445;Parainen
23390;Iniö;445;Parainen
66100;Maalahti;475;Maalahti
66140;Övermalax;475;Maalahti
66160;Längäminne;475;Maalahti
66220;Bergö;475;Maalahti
66240;Petolahti;475;Maalahti
66260;Svarvar;475;Maalahti
22100;Maarianhamina;478;Maarianhamina
21480;Prunkila;480;Marttila
21490;Marttila;480;Marttila
21560;Ollila;480;Marttila
21230;Lemu;481;Masku
21240;Askainen Keskus;481;Masku
21250;Masku;481;Masku
86220;Merijärvi Keskus;483;Merijärvi
86230;Ylipää;483;Merijärvi
86240;Pyhänkoski;483;Merijärvi
29740;Etelämaa;484;Merikarvia
29760;Köörtilä;484;Merikarvia
29790;Tuorila;484;Merikarvia
29900;Merikarvia Keskus-Rannikko;484;Merikarvia
29940;Kuvaskangas;484;Merikarvia
49700;Miehikkälä Kirkonkylä;489;Miehikkälä
49720;Hurttala;489;Miehikkälä
49730;Muurikkala;489;Miehikkälä
49750;Kalliokoski;489;Miehikkälä
49760;Suur-Miehikkälä;489;Miehikkälä
49770;Salo-Miehikkälä;489;Miehikkälä
54490;Ahomäki;489;Miehikkälä
50100;Mikkeli Keskus;491;Mikkeli
50120;Siekkilä;491;Mikkeli
50130;Nuijamies;491;Mikkeli
50150;Karkialampi;491;Mikkeli
50160;Kattilansilta;491;Mikkeli
50170;Peitsari;491;Mikkeli
50180;Visulahti;491;Mikkeli
50190;Tuppurala;491;Mikkeli
50200;Kovala;491;Mikkeli
50300;Rämälä;491;Mikkeli
50350;Norola;491;Mikkeli
50500;Tuukkala-Kaituenmäki;491;Mikkeli
50520;Moision Sairaala-alue;491;Mikkeli
50600;Karikko;491;Mikkeli
50670;Otava;491;Mikkeli
50700;Syysjärvi;491;Mikkeli
50770;Korpikoski;491;Mikkeli
50800;Annilanselkä;491;Mikkeli
50970;Ihastjärvi;491;Mikkeli
51130;Vanhamäki;491;Mikkeli
51420;Harjumaa-Pajulankylä;491;Mikkeli
51450;Pajulankylä;491;Mikkeli
51520;Hiirola;491;Mikkeli
51540;Kalvitsa;491;Mikkeli
51600;Haukivuori Keskus-Piitkäaho;491;Mikkeli
51620;Pitkäaho;491;Mikkeli
51670;Nykälä;491;Mikkeli
51720;Rahula;491;Mikkeli
51740;Huuhanaho;491;Mikkeli
52100;Anttola;491;Mikkeli
52110;Majavesi;491;Mikkeli
52150;Hauhala;491;Mikkeli
52300;Ristiina Keskus;491;Mikkeli
52320;Vitsiälä;491;Mikkeli
52330;Heimari;491;Mikkeli
52340;Hangastenmaa;491;Mikkeli
52360;Someenjärvi;491;Mikkeli
52420;Pellosniemi;491;Mikkeli
52780;Kuomiokoski;491;Mikkeli
52830;Suomenniemi;491;Mikkeli
77380;Kantala;491;Mikkeli
91410;Jokirinne;494;Muhos
91430;Leppiniemi;494;Muhos
91500;Muhos Keskus;494;Muhos
91510;Rova;494;Muhos
91560;Kylmälänkylä;494;Muhos
42600;Multia Keskus-Väätäiskylä;495;Multia
42660;Sahrajärvi;495;Multia
43430;Väätäiskylä;495;Multia
95940;Tapojärvi;498;Muonio
95950;Kihlanki-Tapojärvi;498;Muonio
99300;Muonio Keskus;498;Muonio
99310;Yli-Muonio;498;Muonio
99320;Kätkäsuvanto;498;Muonio
99330;Pallastunturi;498;Muonio
99360;Kangosjärvi;498;Muonio
65450;Sulva;499;Mustasaari
65460;Tölby-Rimal;499;Mustasaari
65470;Rimal;499;Mustasaari
65480;Vikby;499;Mustasaari
65520;Helsingby;499;Mustasaari
65610;Mustasaari Keskus;499;Mustasaari
65630;Karperö;499;Mustasaari
65650;Koskö;499;Mustasaari
65710;Singsby;499;Mustasaari
65730;Jungsund;499;Mustasaari
65760;Iskmo;499;Mustasaari
65800;Raippaluoto;499;Mustasaari
65870;Björköby;499;Mustasaari
65920;Norra Vallgrund-Söderudden;499;Mustasaari
65930;Södra Vallgrund;499;Mustasaari
65970;Söderudden;499;Mustasaari
66520;Veikkaala;499;Mustasaari
66530;Koivulahti;499;Mustasaari
66540;Petsmo;499;Mustasaari
66550;Västerhankmo;499;Mustasaari
66560;Österhankmo;499;Mustasaari
66580;Kuni;499;Mustasaari
66590;Vassor;499;Mustasaari
66999;Kaukaluoto;499;Mustasaari
40930;Kinkomaa;500;Muurame
40950;Muurame Keskus;500;Muurame
23100;Mynämäki Keskus;503;Mynämäki
23120;Mietoinen Keskus;503;Mynämäki
23140;Hietamäki;503;Mynämäki
07600;Myrskylä Keskus;504;Myrskylä
07690;Kankkila;504;Myrskylä
04530;Ohkola;505;Mäntsälä
04600;Mäntsälä Keskus;505;Mäntsälä
04620;Kaunismäki;505;Mäntsälä
04630;Sääksjärvi;505;Mäntsälä
04660;Numminen;505;Mäntsälä
04680;Hirvihaara;505;Mäntsälä
04740;Sälinkää;505;Mäntsälä
04770;Sahakylä;505;Mäntsälä
04820;Kaukalampi;505;Mäntsälä
04840;Hautjärvi;505;Mäntsälä
04920;Saarentaus;505;Mäntsälä
04940;Levanto;505;Mäntsälä
52700;Mäntyharju Keskus;507;Mäntyharju
52720;Karankamäki-Koirakivi;507;Mäntyharju
52730;Koirakivi;507;Mäntyharju
52740;Tuustaipale;507;Mäntyharju
52760;Mynttilä;507;Mäntyharju
52850;Halmeniemi;507;Mäntyharju
52890;Käävänkylä;507;Mäntyharju
52920;Voikoski;507;Mäntyharju
52960;Nurmaa;507;Mäntyharju
52970;Pankalahti-Ahvenainen;507;Mäntyharju
52980;Ahvenainen;507;Mäntyharju
35700;Vilppula Keskus;508;Mänttä-Vilppula
35800;Mänttä;508;Mänttä-Vilppula
35990;Kolho;508;Mänttä-Vilppula
42830;Ylä-Kolkki;508;Mänttä-Vilppula
42840;Kolkki;508;Mänttä-Vilppula
42850;Pohjaslahti;508;Mänttä-Vilppula
21100;Naantali Keskus;529;Naantali
21110;Taimo-Nuhjala-Lietsala;529;Naantali
21130;Poikko;529;Naantali
21140;Rymättylä Keskus;529;Naantali
21150;Röölä;529;Naantali
21160;Merimasku;529;Naantali
21180;Livonsaari;529;Naantali
21195;Velkua;529;Naantali
29250;Nakkila Keskus;531;Nakkila
29270;Hormisto;531;Nakkila
29280;Järvimaa;531;Nakkila
15460;Mäkelä;532;Nastola
15540;Villähde;532;Nastola
15550;Rakokivi;532;Nastola
15560;Nastola kk;532;Nastola
15580;Ruuhijärvi;532;Nastola
16100;Uusikylä;532;Nastola
16160;Okkeri;532;Nastola
85500;Nivala Keskus;535;Nivala
85540;Mönkö;535;Nivala
85560;Ainastalo;535;Nivala
85580;Karvoskylä;535;Nivala
85620;Sarja;535;Nivala
85630;Sarjanahde;535;Nivala
85640;Maliskylä;535;Nivala
85660;Ruuskankylä;535;Nivala
33380;Pitkäniemi;536;Nokia
37100;Nokia Keskus;536;Nokia
37120;Koskenmäki;536;Nokia
37130;Alhoniitty;536;Nokia
37140;Harjuniitty;536;Nokia
37150;Kankaantaka;536;Nokia
37180;Sarkola;536;Nokia
37200;Siuro;536;Nokia
37210;Kulovesi;536;Nokia
37240;Linnavuori;536;Nokia
37310;Tottijärvi;536;Nokia
21270;Nousiainen;538;Nousiainen
75500;Nurmes Keskus;541;Nurmes
75530;Porokylä;541;Nurmes
75650;Savikylä;541;Nurmes
75890;Saramo-Petäiskylä-Mujejärvi;541;Nurmes
75930;Petäiskylä;541;Nurmes
75940;Mujejärvi;541;Nurmes
75970;Kohtavaara;541;Nurmes
75990;Höljäkkä;541;Nurmes
01800;Klaukkala Keskus;543;Nurmijärvi
01810;Luhtajoki;543;Nurmijärvi
01820;Haikala;543;Nurmijärvi
01830;Lepsämä;543;Nurmijärvi
01840;Klaukkala;543;Nurmijärvi
01860;Perttula;543;Nurmijärvi
01900;Nurmijärvi Keskus;543;Nurmijärvi
01940;Palojoki;543;Nurmijärvi
05100;Röykkä;543;Nurmijärvi
05200;Rajamäki;543;Nurmijärvi
05250;Kiljava;543;Nurmijärvi
05450;Nukari;543;Nurmijärvi
05620;Noppo;543;Nurmijärvi
64200;Närpiö Keskus;545;Närpiö
64210;Kalax;545;Närpiö
64220;Yttermark;545;Närpiö
64230;Närpiön Asemanseutu;545;Närpiö
64240;Böle;545;Närpiö
64250;Pjelax;545;Närpiö
64510;Nämpnäs;545;Närpiö
64530;Norrnäs;545;Närpiö
64550;Rangsby;545;Närpiö
64610;Övermark;545;Närpiö
66270;Pirttikylä-Sorvari;545;Närpiö
66295;Töjby;545;Närpiö
16200;Artjärvi Keskus;560;Orimattila
16230;Artjärvi Kirkonkylä;560;Orimattila
16260;Hietana;560;Orimattila
16270;Villikkala;560;Orimattila
16280;Kuivanto;560;Orimattila
16300;Orimattila Keskus;560;Orimattila
16310;Virenoja;560;Orimattila
16320;Pennala;560;Orimattila
16330;Heinämaa;560;Orimattila
16350;Niinikoski;560;Orimattila
16390;Pakaa;560;Orimattila
16450;Mallusjoki;560;Orimattila
16510;Luhtikylä;560;Orimattila
32500;Oripää Keskus;561;Oripää
32520;Latva;561;Oripää
35100;Orivesi Asemanseutu;562;Orivesi
35220;Eräjärvi;562;Orivesi
35240;Ristakallio;562;Orivesi
35260;Leväslahti;562;Orivesi
35270;Västilä;562;Orivesi
35300;Orivesi Keskus;562;Orivesi
35320;Hirsilä;562;Orivesi
35420;Talviainen;562;Orivesi
35480;Längelmäki;562;Orivesi
86210;Petäjäskoski;563;Oulainen
86300;Oulainen Keskus;563;Oulainen
86350;Kilpua;563;Oulainen
86510;Matkaniva;563;Oulainen
86530;Annonen;563;Oulainen
90100;Oulu Keskus;564;Oulu
90120;Heinäpää;564;Oulu
90130;Raksila;564;Oulu
90140;Karjasilta;564;Oulu
90150;Höyhtyä;564;Oulu
90220;Kontinkangas;564;Oulu
90230;Värttö-Maikkula;564;Oulu
90240;Iinatti;564;Oulu
90250;Kaukovainio;564;Oulu
90310;Madekoski;564;Oulu
90400;Äimärautio;564;Oulu
90410;Kaakkuri;564;Oulu
90420;Metsokangas;564;Oulu
90460;Oulunsalo Keskus;564;Oulu
90470;Varjakka;564;Oulu
90500;Tuira;564;Oulu
90510;Hietasaari;564;Oulu
90520;Taskila-Toppila;564;Oulu
90530;Välivainio;564;Oulu
90540;Kuivasjärvi;564;Oulu
90550;Pyykkösjärvi-Puolivälikangas;564;Oulu
90560;Koskela-Oulu;564;Oulu
90570;Kaijonharju-Linnanmaa;564;Oulu
90580;Rajakylä;564;Oulu
90590;Teknologiakylä;564;Oulu
90620;Rusko-Heikinharju;564;Oulu
90630;Korvensuora;564;Oulu
90650;Haapalehto;564;Oulu
90660;Sanginsuu;564;Oulu
90670;Hiukkavaara;564;Oulu
90800;Pateniemi;564;Oulu
90810;Kiviniemi;564;Oulu
90820;Kello;564;Oulu
90830;Haukipudas Keskus;564;Oulu
90840;Haukipudas Asemanseutu;564;Oulu
90850;Martinniemi;564;Oulu
90860;Halosenniemi;564;Oulu
90900;Kiiminki Keskus;564;Oulu
90910;Kontio;564;Oulu
90940;Jääli;564;Oulu
91200;Yli-Ii Keskus;564;Oulu
91210;Jakkukylä;564;Oulu
91240;Tannila;564;Oulu
91260;Pahkakoski-Räinä;564;Oulu
91300;Ylikiiminki Keskus;564;Oulu
91310;Arkala;564;Oulu
17470;Maakeski;576;Padasjoki
17500;Padasjoki Keskus;576;Padasjoki
17510;Nyystölä;576;Padasjoki
17530;Arrakoski;576;Padasjoki
17610;Auttoinen;576;Padasjoki
17630;Vesijako;576;Padasjoki
17710;Torittu;576;Padasjoki
17740;Kasiniemi-Torittu;576;Padasjoki
21510;Hevonpää;577;Paimio
21520;Naskarla;577;Paimio
21530;Paimio Keskus;577;Paimio
21540;Preitilä;577;Paimio
21555;Taatila;577;Paimio
88300;Paltamo Keskus;578;Paltamo
88310;Melalahti;578;Paltamo
88350;Kivesjärvi;578;Paltamo
88380;Mieslahti;578;Paltamo
88470;Kontiomäki;578;Paltamo
59100;Parikkala Keskus;580;Parikkala
59130;Koitsanlahti;580;Parikkala
59210;Melkoniemi;580;Parikkala
59310;Särkisalmi;580;Parikkala
59320;Haapaoja;580;Parikkala
59410;Kirjavala;580;Parikkala
59510;Maironiemi;580;Parikkala
59520;Saari;580;Parikkala
59530;Mikkolanniemi;580;Parikkala
59610;Tarnala;580;Parikkala
59710;Kummunkylä;580;Parikkala
59720;Niukkala;580;Parikkala
59730;Uukuniemi;580;Parikkala
39620;Kovesjoki;581;Parkano
39660;Lapinneva;581;Parkano
39700;Parkano Keskus;581;Parkano
39750;Vatajanjärvi;581;Parkano
39770;Aureskoski;581;Parkano
39780;Alaskylä;581;Parkano
98500;Pelkosenniemi Keskus;583;Pelkosenniemi
98510;Saunavaara;583;Pelkosenniemi
98530;Pyhätunturi;583;Pelkosenniemi
98550;Suvanto;583;Pelkosenniemi
98560;Kairala-Luiro;583;Pelkosenniemi
98570;Aapajärvi;583;Pelkosenniemi
98580;Luiro;583;Pelkosenniemi
69910;Kivikangas;584;Perho
69920;Oksakoski-Kivikangas;584;Perho
69950;Perho Keskus-Salamajärvi;584;Perho
69970;Salamajärvi;584;Perho
69980;Möttönen;584;Perho
19410;Kuortti;588;Pertunmaa
19420;Mansikkamäki;588;Pertunmaa
19430;Pertunmaa Keskus;588;Pertunmaa
19460;Ruorasmäki;588;Pertunmaa
19470;Lihavanpää-Hartosenpää;588;Pertunmaa
19480;Hartosenpää;588;Pertunmaa
41900;Petäjävesi Keskus;592;Petäjävesi
41920;Kintaus;592;Petäjävesi
41925;Ylä-Kintaus;592;Petäjävesi
41980;Kuivasmäki;592;Petäjävesi
76100;Pieksämäki Keskus;593;Pieksämäki
76120;Kotiopuisto;593;Pieksämäki
76130;Pappilanmäki;593;Pieksämäki
76150;Länsirinne;593;Pieksämäki
76280;Partaharju;593;Pieksämäki
76620;Pyhitty;593;Pieksämäki
76780;Lamminmäki;593;Pieksämäki
76850;Naarajärvi;593;Pieksämäki
76940;Nenonpelto;593;Pieksämäki
77110;Paltanen;593;Pieksämäki
77120;Venetmäki;593;Pieksämäki
77140;Huumala;593;Pieksämäki
77220;Neuvola;593;Pieksämäki
77240;Halkokumpu;593;Pieksämäki
77320;Hurskaala;593;Pieksämäki
77330;Virtasalmi Keskus;593;Pieksämäki
77350;Montola;593;Pieksämäki
77430;Siikamäki;593;Pieksämäki
77520;Haapakoski-Partaharju;593;Pieksämäki
77570;Jäppilä Keskus;593;Pieksämäki
77580;Tihusniemi;593;Pieksämäki
72400;Pielavesi Keskus-Jylänki;595;Pielavesi
72430;Kumpula;595;Pielavesi
72510;Jokijärvi;595;Pielavesi
72530;Säviäntaipale;595;Pielavesi
72550;Säviä;595;Pielavesi
72570;Vuorikylä;595;Pielavesi
72710;Vaaraslahti;595;Pielavesi
72740;Laukkala;595;Pielavesi
72810;Jylhänkylä;595;Pielavesi
72840;Saarela;595;Pielavesi
72980;Petäjäkylä;595;Pielavesi
68600;Pietarsaari Keskus;598;Pietarsaari
68620;Skutnäs-Västermalm;598;Pietarsaari
68630;Kyrkostrand;598;Pietarsaari
68660;Östermalm-Björnholmen;598;Pietarsaari
68530;Lepplax;599;Pedersören kunta
68690;Sundby;599;Pedersören kunta
68800;Kolppi;599;Pedersören kunta
68810;Ytteresse;599;Pedersören kunta
68820;Ähtävä;599;Pedersören kunta
68830;Bäckby;599;Pedersören kunta
68840;Nederlappfors;599;Pedersören kunta
68870;Edsevö;599;Pedersören kunta
68910;Pännäinen;599;Pedersören kunta
68920;Forsby;599;Pedersören kunta
68930;Purmo;599;Pedersören kunta
68940;Lillby;599;Pedersören kunta
68970;Överpurmo;599;Pedersören kunta
44800;Pihtipudas Keskus;601;Pihtipudas
44860;Alvajärvi;601;Pihtipudas
44880;Muurasjärvi;601;Pihtipudas
44910;Elämäjärvi;601;Pihtipudas
44920;Peninki;601;Pihtipudas
44950;Kärväsjärvi;601;Pihtipudas
44970;Korppinen;601;Pihtipudas
33920;Toivio;604;Pirkkala
33950;Killo;604;Pirkkala
33960;Suuppa;604;Pirkkala
33980;Pirkkala kk;604;Pirkkala
83700;Polvijärvi Keskus;607;Polvijärvi
83720;Kuorevaara;607;Polvijärvi
83750;Sotkuma;607;Polvijärvi
83760;Sola;607;Polvijärvi
83780;Horsmanaho;607;Polvijärvi
83825;Kinahmo;607;Polvijärvi
83830;Hukkala;607;Polvijärvi
83835;Ruvaslahti;607;Polvijärvi
83840;Saarivaara;607;Polvijärvi
83855;Martonvaara-Sammakkovaara;607;Polvijärvi
29630;Pomarkku Keskus;608;Pomarkku
29640;Honkakoski;608;Pomarkku
38680;Tuunajärvi;608;Pomarkku
28100;Pori Keskus;609;Pori
28120;Käppärä-Isomäki;609;Pori
28130;Impola;609;Pori
28190;Pormestarinluoto;609;Pori
28200;Toejoki;609;Pori
28220;Ruosniemi;609;Pori
28240;Isojoenranta;609;Pori
28300;Kalaholma-Väinölä;609;Pori
28330;Koivistonluoto;609;Pori
28360;Vanhakoivisto;609;Pori
28370;Sampola;609;Pori
28430;Kartano-Harmaalinna;609;Pori
28500;Keskussairaala-alue-Tiilimäki;609;Pori
28540;Pinomäki;609;Pori
28560;Lattomeri;609;Pori
28580;Niittymaa;609;Pori
28600;Vähärauma;609;Pori
28610;Musa-Tiiliruukki;609;Pori
28660;Pietniemi-Leppäkorpi;609;Pori
28760;Kyläsaari;609;Pori
28800;Pihlava;609;Pori
28840;Yyteri-Kaanaa;609;Pori
28880;Mäntyluoto;609;Pori
28900;Tahkoluoto-Reposaari;609;Pori
29570;Söörmarkku;609;Pori
29600;Noormarkku Keskus;609;Pori
29680;Kairila;609;Pori
29700;Ahlainen;609;Pori
29720;Lamppi;609;Pori
29750;Pohjansaha;609;Pori
38600;Lavia Keskus;609;Pori
38650;Yli-Putto;609;Pori
38670;Kalliala-Haunia;609;Pori
07150;Laukkoski;611;Pornainen
07170;Keski-Pornainen;611;Pornainen
07190;Halkia;611;Pornainen
97810;Suorsa;614;Posio
97815;Pernu-Suorsa;614;Posio
97820;Perä-Posio;614;Posio
97840;Lehtiniemi;614;Posio
97850;Ristilä;614;Posio
97870;Jumisko;614;Posio
97880;Nolimo-Jumisko;614;Posio
97890;Karjalaisenniemi;614;Posio
97895;Mourujärvi;614;Posio
97900;Posio Keskus;614;Posio
97920;Suonnankylä;614;Posio
97925;Tolva;614;Posio
97940;Lohiranta;614;Posio
97950;Säikkä;614;Posio
97960;Kuloharju-Säikkä;614;Posio
97965;Kynsilä;614;Posio
97970;Sirniö;614;Posio
97980;Anetjärvi;614;Posio
98780;Maaninkavaara;614;Posio
93100;Pudasjärvi Keskus;615;Pudasjärvi
93140;Kipinä;615;Pudasjärvi
93160;Hetejärvi;615;Pudasjärvi
93170;Yli-Kollaja;615;Pudasjärvi
93180;Ikosenniemi;615;Pudasjärvi
93187;Ala-Siurua;615;Pudasjärvi
93190;Yli-Siurua-Ikosenniemi;615;Pudasjärvi
93195;Kokkokylä;615;Pudasjärvi
93220;Livo;615;Pudasjärvi
93225;Pärjänsuo;615;Pudasjärvi
93240;Rytinki;615;Pudasjärvi
93250;Sarajärvi;615;Pudasjärvi
93270;Sotkajärvi;615;Pudasjärvi
93277;Iinattijärvi;615;Pudasjärvi
93280;Syöte;615;Pudasjärvi
93290;Pintamo;615;Pudasjärvi
93350;Jaurakkajärvi;615;Pudasjärvi
93390;Puhoskylä;615;Pudasjärvi
07550;Torpinkylä;616;Pukkila
07560;Pukkila Keskus;616;Pukkila
07565;Kantele;616;Pukkila
31810;Oriniemi;619;Punkalaidun
31850;Koskioinen;619;Punkalaidun
31900;Punkalaidun Keskus;619;Punkalaidun
31930;Vanttila;619;Punkalaidun
31950;Sadonmaa;619;Punkalaidun
31970;Kanteenmaa;619;Punkalaidun
89110;Törmänmäki;620;Puolanka
89140;Kotila-Törmänmäki;620;Puolanka
89200;Puolanka Keskus;620;Puolanka
89210;Puokiovaara;620;Puolanka
89320;Joukokylä;620;Puolanka
89330;Suolijärvi;620;Puolanka
52200;Puumala Keskus;623;Puumala
52230;Hurissalo;623;Puumala
52270;Ryhälä;623;Puumala
49200;Heinlahti;624;Pyhtää
49210;Huutjärvi;624;Pyhtää
49220;Siltakylä;624;Pyhtää
49240;Purolanlahti;624;Pyhtää
49270;Pyhtää kk;624;Pyhtää
49290;Vastila;624;Pyhtää
86100;Pyhäjoki Keskus;625;Pyhäjoki
86110;Parhalahti;625;Pyhäjoki
86160;Pirttikoski;625;Pyhäjoki
86170;Yppäri;625;Pyhäjoki
86800;Pyhäsalmi;626;Pyhäjärvi
86810;Pellikkaperä;626;Pyhäjärvi
86850;Hiidenniemi;626;Pyhäjärvi
86870;Vesikoski;626;Pyhäjärvi
86900;Pyhäkumpu;626;Pyhäjärvi
86980;Väliaho;626;Pyhäjärvi
92910;Tavastkenkä;630;Pyhäntä
92920;Ahokylä;630;Pyhäntä
92930;Pyhäntä;630;Pyhäntä
23950;Pyhäranta;631;Pyhäranta
23960;Santtio;631;Pyhäranta
27320;Ihode;631;Pyhäranta
27340;Reila;631;Pyhäranta
14960;Puutikkala;635;Pälkäne
14980;Kuohijoki;635;Pälkäne
36450;Salmentaka;635;Pälkäne
36600;Pälkäne Keskus;635;Pälkäne
36640;Iltasmäki;635;Pälkäne
36660;Laitikkala;635;Pälkäne
36720;Aitoo;635;Pälkäne
36760;Luopioinen Keskus;635;Pälkäne
36910;Rautajärvi;635;Pälkäne
36930;Kyynärö;635;Pälkäne
21800;Kyrö;636;Pöytyä
21820;Kumila;636;Pöytyä
21840;Karinainen;636;Pöytyä
21860;Auvainen;636;Pöytyä
21870;Riihikoski;636;Pöytyä
21880;Pöytyä;636;Pöytyä
21890;Haveri;636;Pöytyä
21900;Yläne Keskus;636;Pöytyä
21930;Uusikartano;636;Pöytyä
06100;Porvoo Keskus;638;Porvoo
06150;Kevätkumpu;638;Porvoo
06200;Porvoo itäinen;638;Porvoo
06400;Gammelbacka;638;Porvoo
06450;Eestinmäki-Ernestas;638;Porvoo
06500;Saksala-Suomenkylä;638;Porvoo
06530;Kerkkoo;638;Porvoo
06650;Hamari;638;Porvoo
06750;Tolkkinen;638;Porvoo
06830;Kulloonkylä;638;Porvoo
06850;Kulloo;638;Porvoo
06950;Emäsalo;638;Porvoo
07110;Hinthaara;638;Porvoo
07130;Anttila;638;Porvoo
07220;Kaarenkylä;638;Porvoo
07280;Ilola;638;Porvoo
07310;Sannainen;638;Porvoo
07320;Jakari-Sannäs;638;Porvoo
07350;Gäddrag;638;Porvoo
07360;Tirmo;638;Porvoo
07370;Pellinki;638;Porvoo
07390;Suurpellinki;638;Porvoo
07410;Kräkö;638;Porvoo
07450;Voolahti;638;Porvoo
86360;Ilveskorpi;678;Raahe
86400;Vihanti Keskus;678;Raahe
86440;Lampinsaari;678;Raahe
86460;Alpua;678;Raahe
86470;Lumimetsä;678;Raahe
92100;Raahe Keskus;678;Raahe
92120;Ollinsaari-Mestauskallio;678;Raahe
92130;Isoholmi-Antinkangas;678;Raahe
92140;Pattijoki Keskus;678;Raahe
92150;Kummatti-Junnilanmäki;678;Raahe
92160;Saloinen;678;Raahe
92180;Lapaluoto;678;Raahe
92210;Arkkukari;678;Raahe
92220;Piehinki;678;Raahe
92230;Mattilanperä;678;Raahe
92240;Lasikangas;678;Raahe
92260;Kopsa;678;Raahe
21120;Viherjäinen;680;Raisio
21200;Raisio Keskus;680;Raisio
21210;Hakinmäki;680;Raisio
21220;Somersoja;680;Raisio
21260;Ihala;680;Raisio
21280;Kuloinen;680;Raisio
58830;Parkumäki;681;Rantasalmi
58850;Hiltula;681;Rantasalmi
58900;Rantasalmi Keskus;681;Rantasalmi
58910;Rantasalmi Asemanseutu;681;Rantasalmi
58920;Kolkontaipale;681;Rantasalmi
58940;Tuusmäki;681;Rantasalmi
97665;Pohjasperä;683;Ranua
97700;Ranua Keskus;683;Ranua
97715;Raiskio;683;Ranua
97720;Yli-Simo-Raiskio;683;Ranua
97760;Saariharju;683;Ranua
97765;Kuha-Impiö-Itäranua;683;Ranua
97770;Petäjäjärvi;683;Ranua
97780;Kuukasjärvi-Petäjäjärvi;683;Ranua
97785;Kelankylä;683;Ranua
26100;Rauma Keskus;684;Rauma
26200;Merirauma-Kappelinluhta;684;Rauma
26410;Kaaro;684;Rauma
26510;Uotila;684;Rauma
26560;Kolla;684;Rauma
26660;Paroalho;684;Rauma
26720;Monnanummi;684;Rauma
26740;Vasarainen;684;Rauma
26820;Sampaanala;684;Rauma
26840;Kortela;684;Rauma
26910;Unaja;684;Rauma
26930;Vermuntila;684;Rauma
26950;Voiluoto;684;Rauma
27220;Ala-Kieri;684;Rauma
27230;Lappi;684;Rauma
27250;Kodiksami;684;Rauma
27260;Kuolimaa;684;Rauma
27310;Kodisjoki;684;Rauma
77700;Rautalampi Keskus;686;Rautalampi
77770;Myhinpää;686;Rautalampi
77910;Vaajasalmi;686;Rautalampi
77930;Kerkonjoensuu;686;Rautalampi
77960;Pakarila;686;Rautalampi
73850;Ala-Luosta-Riitasalo;687;Rautavaara
73860;Pykälikkö;687;Rautavaara
73900;Rautavaara Keskus;687;Rautavaara
73970;Riitasalo;687;Rautavaara
73990;Kangaslahti;687;Rautavaara
75680;Ylä-Luosta;687;Rautavaara
56550;Niska-Pietilä;689;Rautjärvi
56610;Rautjärvi;689;Rautjärvi
56640;Purnujärvi;689;Rautjärvi
56710;Miettilä;689;Rautjärvi
56730;Laikko;689;Rautjärvi
56800;Simpele;689;Rautjärvi
85900;Reisjärvi Keskus;691;Reisjärvi
85930;Kangaskylä-Tolpankangas;691;Reisjärvi
85940;Räisälänmäki;691;Reisjärvi
85980;Köyhänperä;691;Reisjärvi
11100;Riihimäki Keskus;694;Riihimäki
11120;Pohjois-Riihimäki;694;Riihimäki
11130;Peltosaari-Patastenmäki;694;Riihimäki
11310;Taka-Kasarmi;694;Riihimäki
11710;Herajoki;694;Riihimäki
11910;Lasi-Kumela;694;Riihimäki
88400;Ristijärvi Keskus-Hiisijärvi;697;Ristijärvi
88440;Jokikylä;697;Ristijärvi
88460;Hiisijärvi;697;Ristijärvi
96100;Rovaniemi Keskus;698;Rovaniemi
96190;Lapinrinne-Ahokangas;698;Rovaniemi
96200;Sahanperä-Ratantaus;698;Rovaniemi
96300;Niemelänkangas-Korvanniemi;698;Rovaniemi
96320;Teollisuuskylä;698;Rovaniemi
96400;Pullinranta-Kiiruna;698;Rovaniemi
96440;Ounasrinne;698;Rovaniemi
96460;Pöykkölä;698;Rovaniemi
96500;Korkalovaara;698;Rovaniemi
96600;Koskenkylä;698;Rovaniemi
96700;Niskanperä;698;Rovaniemi
96800;Ylikylä-Patosaari;698;Rovaniemi
96900;Saarenkylä;698;Rovaniemi
96910;Syväsenvaara;698;Rovaniemi
96930;Napapiiri Rovaniemi;698;Rovaniemi
96960;Someroharju;698;Rovaniemi
97110;Rautionsaari;698;Rovaniemi
97130;Hirvas;698;Rovaniemi
97140;Muurola;698;Rovaniemi
97145;Totonvaara;698;Rovaniemi
97160;Petäjäinen;698;Rovaniemi
97170;Jaatila;698;Rovaniemi
97220;Sinettä;698;Rovaniemi
97240;Sonka;698;Rovaniemi
97280;Tapio;698;Rovaniemi
97290;Marraskoski;698;Rovaniemi
97310;Patokoski;698;Rovaniemi
97320;Marrasjärvi;698;Rovaniemi
97340;Meltaus-Jääskö-Perttaus;698;Rovaniemi
97510;Vikajärvi;698;Rovaniemi
97520;Nampa;698;Rovaniemi
97530;Nampa-Yli-Nampa;698;Rovaniemi
97540;Tiainen;698;Rovaniemi
97580;Misi;698;Rovaniemi
97610;Oikarainen;698;Rovaniemi
97615;Tennirova;698;Rovaniemi
97620;Viiri-Tennirova;698;Rovaniemi
97625;Vanttauskoski;698;Rovaniemi
97630;Pekkala;698;Rovaniemi
97635;Juuniemi;698;Rovaniemi
97650;Juotas;698;Rovaniemi
97655;Autti;698;Rovaniemi
97670;Kivitaipale;698;Rovaniemi
97675;Narkaus-Kämät;698;Rovaniemi
97680;Saari-Kämä;698;Rovaniemi
97685;Siika-Kämä;698;Rovaniemi
97690;Sulaoja;698;Rovaniemi
56100;Ruokolahti Keskus;700;Ruokolahti
56120;Salosaari;700;Ruokolahti
56140;Äitsaari;700;Ruokolahti
56210;Virmutjoki;700;Ruokolahti
56310;Syyspohja;700;Ruokolahti
56330;Utula;700;Ruokolahti
56410;Kaiturinpää;700;Ruokolahti
56440;Pohja-Lankila;700;Ruokolahti
56510;Puntala;700;Ruokolahti
34410;Murole;702;Ruovesi
34420;Muroleen Kanava;702;Ruovesi
34430;Kekkonen;702;Ruovesi
34450;Jäminkipohja;702;Ruovesi
34600;Ruovesi Keskus-Nenonen;702;Ruovesi
34640;Mustajärvi;702;Ruovesi
34870;Visuvesi;702;Ruovesi
35740;Ylä-Vääri;702;Ruovesi
35750;Väärinmaja;702;Ruovesi
21290;Rusko;704;Rusko
21310;Vahto;704;Rusko
82290;Nieminen;707;Rääkkylä
82300;Rääkkylä Keskus;707;Rääkkylä
82310;Oravisalo-Varpasalo;707;Rääkkylä
82335;Rasivaara;707;Rääkkylä
10300;Karjaa Keskus;710;Raasepori
10320;Bäljars;710;Raasepori
10330;Pinjainen;710;Raasepori
10350;Meltolan sairaala-alue;710;Raasepori
10360;Mustio;710;Raasepori
10380;Kaunislahti;710;Raasepori
10410;Åminnefors;710;Raasepori
10420;Pohjankuru;710;Raasepori
10440;Bollsta;710;Raasepori
10470;Fiskari;710;Raasepori
10480;Antskog;710;Raasepori
10520;Tenhola Kirkonkylä;710;Raasepori
10570;Bromarv;710;Raasepori
10600;Tammisaari Keskus;710;Raasepori
10620;Högbacka;710;Raasepori
10640;Dragsvik;710;Raasepori
10650;Flyet;710;Raasepori
10660;Trollböle;710;Raasepori
10680;Skogby;710;Raasepori
10710;Snappertuna;710;Raasepori
41260;Hoikankylä;729;Saarijärvi
41270;Lannevesi;729;Saarijärvi
43100;Saarijärvi Keskus;729;Saarijärvi
43130;Tarvaala;729;Saarijärvi
43170;Häkkilä;729;Saarijärvi
43220;Mahlu;729;Saarijärvi
43240;Lehtola;729;Saarijärvi
43250;Kolkanlahti;729;Saarijärvi
43270;Kalmari;729;Saarijärvi
43420;Kukko;729;Saarijärvi
43440;Pylkönmäki Keskus;729;Saarijärvi
43480;Pääjärvi;729;Saarijärvi
98600;Kursu;732;Salla
98620;Pahkakumpu;732;Salla
98630;Ahvenselkä;732;Salla
98660;Salmivaara;732;Salla
98760;Hirvasvaara-Paloperä;732;Salla
98770;Aholanvaara;732;Salla
98790;Paloperä;732;Salla
98900;Salla Keskus;732;Salla
98920;Kelloselkä;732;Salla
98930;Kotalankylä;732;Salla
98950;Saija;732;Salla
98960;Naruska;732;Salla
98970;Onkamojärvi;732;Salla
98980;Kallunki-Niemelä;732;Salla
98995;Hautajärvi;732;Salla
24100;Salo Keskus;734;Salo
24130;Ylhäisi;734;Salo
24240;Rappula;734;Salo
24260;Ollikkala;734;Salo
24280;Tupuri-Hähkänä;734;Salo
24800;Halikko Keskus;734;Salo
24910;Halikko Asemanseutu;734;Salo
25110;Kruusila;734;Salo
25130;Muurla;734;Salo
25160;Tuohittu;734;Salo
25170;Kotalato;734;Salo
25180;Romsila;734;Salo
25190;Inkere;734;Salo
25210;Vartsala;734;Salo
25230;Angelniemi;734;Salo
25240;Hajala;734;Salo
25250;Märynummi;734;Salo
25260;Vaskio;734;Salo
25320;Raatala;734;Salo
25330;Kuusjoki Keskus;734;Salo
25340;Kanunki;734;Salo
25360;Pertteli Keskus;734;Salo
25370;Hiisi;734;Salo
25380;Rekijoki;734;Salo
25390;Kiikala Keskus;734;Salo
25410;Suomusjärvi Keskus;734;Salo
25420;Lahnajärvi;734;Salo
25430;Kettula;734;Salo
25460;Toija;734;Salo
25470;Kisko kk;734;Salo
25500;Perniö Keskus;734;Salo
25520;Perniö Asemanseutu;734;Salo
25540;Knaapila;734;Salo
25550;Aijala;734;Salo
25560;Koski Asemanseutu;734;Salo
25570;Teijo-Mathildedal;734;Salo
25610;Ylönkylä;734;Salo
25630;Finby;734;Salo
25640;Förby;734;Salo
25660;Mathildedal;734;Salo
22320;Ödkarby;736;Saltvik
22430;Saltvik;736;Saltvik
21570;Sauvo Keskus;738;Sauvo
21590;Karuna;738;Sauvo
54750;Välijoki;739;Savitaipale
54770;Heituinlahti;739;Savitaipale
54800;Savitaipale Keskus;739;Savitaipale
54950;Pettilä;739;Savitaipale
57100;Heikinpohja-Piispanmäki;740;Savonlinna
57120;Savonlinna;740;Savonlinna
57130;Savonlinna Keskus;740;Savonlinna
57170;Sortteerinlahti-Talvisalo;740;Savonlinna
57200;Miekonniemi-Venäjänniemi;740;Savonlinna
57210;Nojanmaa;740;Savonlinna
57220;Haka-alue-Viuhonmäki;740;Savonlinna
57230;Inkerinkylä;740;Savonlinna
57310;Rinkilä;740;Savonlinna
57510;Laitaatsilta;740;Savonlinna
57600;Poukkusilta-Pihlajaniemi;740;Savonlinna
57710;Kellarpelto-Rantakoivikko;740;Savonlinna
57810;Aholahti;740;Savonlinna
58130;Oravi;740;Savonlinna
58140;Ahvensalmi;740;Savonlinna
58150;Makkola;740;Savonlinna
58200;Kerimäki Keskus;740;Savonlinna
58220;Louhi;740;Savonlinna
58260;Kumpuranta;740;Savonlinna
58300;Savonranta Keskus;740;Savonlinna
58320;Raikuu;740;Savonlinna
58360;Säimen;740;Savonlinna
58390;Rönkönvaara;740;Savonlinna
58410;Haapakallio;740;Savonlinna
58420;Silvola;740;Savonlinna
58430;Kulennoinen;740;Savonlinna
58450;Punkaharju;740;Savonlinna
58500;Punkasalmi;740;Savonlinna
58520;Hiukkajoki;740;Savonlinna
58550;Putikko;740;Savonlinna
58570;Ruhvana;740;Savonlinna
58580;Vuoriniemi;740;Savonlinna
58650;Kiviapaja;740;Savonlinna
58680;Piojärvi;740;Savonlinna
58690;Ala-Särkilahti-Piojärvi;740;Savonlinna
58770;Pihlajalahti;740;Savonlinna
58810;Kallislahti;740;Savonlinna
98800;Savukoski Keskus-Värriö;742;Savukoski
98810;Lunkkaus;742;Savukoski
98820;Värriö;742;Savukoski
98830;Martti-Ruuvaoja;742;Savukoski
98840;Ruuvaoja;742;Savukoski
98850;Kuosku;742;Savukoski
99640;Tanhua;742;Savukoski
60100;Seinäjoki Keskus;743;Seinäjoki
60120;Pohja;743;Seinäjoki
60150;Kasperi;743;Seinäjoki
60200;Törnävä;743;Seinäjoki
60220;Huhtala;743;Seinäjoki
60280;Eskoon Keskuslaitosalue;743;Seinäjoki
60320;Alakylä-Jouppi;743;Seinäjoki
60420;Impivaara;743;Seinäjoki
60510;Hyllykallio;743;Seinäjoki
60550;Nurmo Keskus;743;Seinäjoki
60560;Halkosaari;743;Seinäjoki
60640;Kurjenneva;743;Seinäjoki
61100;Peräseinäjoki Keskus;743;Seinäjoki
61110;Vuolle;743;Seinäjoki
61120;Louko;743;Seinäjoki
61140;Pasto;743;Seinäjoki
61160;Koura;743;Seinäjoki
61180;Haapaluoma;743;Seinäjoki
61400;Ylistaro Keskus;743;Seinäjoki
61410;Ylistaro Asemanseutu;743;Seinäjoki
61430;Isorehto;743;Seinäjoki
61440;Untamala;743;Seinäjoki
61450;Kylänpää;743;Seinäjoki
61460;Hanhikoski;743;Seinäjoki
61470;Kitinoja;743;Seinäjoki
61650;Kalakoski;743;Seinäjoki
85310;Sievi Asemanseutu;746;Sievi
85320;Markkula;746;Sievi
85340;Jyrinki;746;Sievi
85410;Sievi Keskus;746;Sievi
85430;Koivisto;746;Sievi
85450;Joenkylä;746;Sievi
85470;Kiiskilampi;746;Sievi
29810;Siikainen Keskus;747;Siikainen
29830;Sammi;747;Siikainen
29860;Otamo;747;Siikainen
29880;Leväsjoki-Saarineva;747;Siikainen
92320;Siikajoki Keskus;748;Siikajoki
92330;Karinkanta;748;Siikajoki
92350;Revonlahti;748;Siikajoki
92400;Ruukki Keskus;748;Siikajoki
92430;Paavola-Huumola;748;Siikajoki
92440;Saarikoski;748;Siikajoki
92450;Luohua;748;Siikajoki
92470;Tuomioja;748;Siikajoki
70900;Toivala;749;Siilinjärvi
70910;Vuorela;749;Siilinjärvi
71800;Siilinjärvi Keskus;749;Siilinjärvi
71820;Pöljä;749;Siilinjärvi
71840;Kuuslahti;749;Siilinjärvi
71850;Leppäkaarre;749;Siilinjärvi
71870;Harjamäki;749;Siilinjärvi
71890;Hamula;749;Siilinjärvi
95200;Simo Keskus;751;Simo
95210;Filpus;751;Simo
95220;Simoniemi;751;Simo
95225;Viantie;751;Simo
95230;Maksniemi;751;Simo
95255;Alaniemi;751;Simo
95260;Tainionjoki;751;Simo
95270;Yli-Kärppä-Tainionjoki;751;Simo
01120;Västerskog;753;Sipoo
01150;Söderkulla;753;Sipoo
01180;Kalkkiranta;753;Sipoo
01190;Box;753;Sipoo
04130;Nikkilä;753;Sipoo
04150;Martinkylä;753;Sipoo
04170;Paippinen;753;Sipoo
04240;Talma;753;Sipoo
06880;Kärrby;753;Sipoo
02490;Pikkala;755;Siuntio
02570;Siuntio Kirkonkylä;755;Siuntio
02580;Siuntio Asemanseutu;755;Siuntio
02590;Lappers;755;Siuntio
97370;Unarin-Luusua;758;Sodankylä
97380;Kukasranta;758;Sodankylä
97390;Kierinki;758;Sodankylä
99510;Raudanjoki-Seipäjärvi;758;Sodankylä
99520;Seipäjärvi;758;Sodankylä
99530;Vuojärvi;758;Sodankylä
99540;Torvinen;758;Sodankylä
99550;Aska-Orakylä;758;Sodankylä
99555;Luosto;758;Sodankylä
99560;Orakylä;758;Sodankylä
99600;Sodankylä Keskus;758;Sodankylä
99610;Siurunmaa;758;Sodankylä
99620;Kelujärvi;758;Sodankylä
99645;Lokka;758;Sodankylä
99650;Sattanen;758;Sodankylä
99655;Sattasvaara;758;Sodankylä
99660;Kersilö;758;Sodankylä
99665;Moskuvaara;758;Sodankylä
99670;Petkula;758;Sodankylä
99690;Vuotso;758;Sodankylä
99695;Tankavaara;758;Sodankylä
99710;Vaalajärvi;758;Sodankylä
99720;Riipi;758;Sodankylä
99740;Syväjärvi;758;Sodankylä
99750;Sassali;758;Sodankylä
99760;Uimaniemi;758;Sodankylä
99770;Jeesiö;758;Sodankylä
63800;Soini Keskus;759;Soini
63830;Keisala;759;Soini
63880;Kukonkylä;759;Soini
63890;Hautakylä;759;Soini
31400;Somero Keskus;761;Somero
31410;Ylöpirtti;761;Somero
31450;Häntälä;761;Somero
31460;Hirsjärvi;761;Somero
31470;Somerniemi;761;Somero
31490;Terttilä;761;Somero
31520;Pitkäjärvi;761;Somero
31530;Pyöli;761;Somero
74300;Sonkajärvi Keskus;762;Sonkajärvi
74340;Sukeva-Kainuunmäki;762;Sonkajärvi
74345;Kalliosuo;762;Sonkajärvi
74360;Sonkakoski;762;Sonkajärvi
74380;Jyrkkä;762;Sonkajärvi
74420;Hernejärvi;762;Sonkajärvi
74490;Koirakoski;762;Sonkajärvi
74390;Laakajärvi;765;Sotkamo
88120;Tuhkakylä;765;Sotkamo
88490;Pohjavaara;765;Sotkamo
88530;Paakki;765;Sotkamo
88600;Sotkamo Keskus;765;Sotkamo
88610;Vuokatti;765;Sotkamo
88615;Vuokatin Urheiluopisto;765;Sotkamo
88620;Korholanmäki;765;Sotkamo
88640;Ontojoki;765;Sotkamo
88670;Juurikkalahti-Maanselkä;765;Sotkamo
88690;Maanselkä;765;Sotkamo
22720;Sottunga;766;Sottunga
58610;Telakanava;768;Sulkava
58620;Lohilahti;768;Sulkava
58700;Sulkava Keskus;768;Sulkava
58720;Kaartilankoski;768;Sulkava
22520;Tosarby;771;Sund
22530;Sund;771;Sund
89440;Sakara;777;Suomussalmi
89600;Ämmänsaari;777;Suomussalmi
89610;Jumaliskylä;777;Suomussalmi
89640;Pesiökylä;777;Suomussalmi
89660;Takalo;777;Suomussalmi
89670;Näljänkä;777;Suomussalmi
89680;Vaaranniva;777;Suomussalmi
89730;Ahjola;777;Suomussalmi
89740;Kianta;777;Suomussalmi
89760;Piispajärvi-Peranka-Kaikkoinen;777;Suomussalmi
89770;Peranka;777;Suomussalmi
89780;Kaikkonen;777;Suomussalmi
89800;Suomussalmi Keskus;777;Suomussalmi
89830;Ala-Vuokki;777;Suomussalmi
89840;Ylä-Vuokki;777;Suomussalmi
89920;Ruhtinansalmi;777;Suomussalmi
77600;Suonenjoki Keskus;778;Suonenjoki
77630;Lempyy;778;Suonenjoki
77690;Suontee;778;Suonenjoki
77800;Iisvesi;778;Suonenjoki
19230;Onkiniemi;781;Sysmä
19310;Karilanmaa;781;Sysmä
19320;Nikkaroinen;781;Sysmä
19370;Nuoramoinen;781;Sysmä
19700;Sysmä Keskus;781;Sysmä
19730;Särkilampi;781;Sysmä
19740;Liikola;781;Sysmä
19770;Valittula;781;Sysmä
27800;Säkylä Keskus;783;Säkylä
27820;Iso-Vimma;783;Säkylä
27910;Huovinrinne;783;Säkylä
27920;Otajoki;783;Säkylä
88340;Manamansalo;785;Vaala
91700;Vaala Keskus-Oterma;785;Vaala
91710;Jylhämä;785;Vaala
91720;Oterma;785;Vaala
91730;Kankari;785;Vaala
91740;Jaalanka-Liminpuro;785;Vaala
91750;Liminpuro;785;Vaala
91760;Säräisniemi;785;Vaala
91780;Neittävä;785;Vaala
91790;Nuojua;785;Vaala
92810;Pelsonsuo;785;Vaala
92830;Veneheitto;785;Vaala
32730;Keikyä;790;Sastamala
32740;Äetsä Keskus;790;Sastamala
38100;Karkku;790;Sastamala
38120;Kutala;790;Sastamala
38130;Ellivuori;790;Sastamala
38140;Kärppälä;790;Sastamala
38200;Vammala Keskus;790;Sastamala
38210;Vammala Asemanseutu;790;Sastamala
38220;Stormi;790;Sastamala
38250;Roismala;790;Sastamala
38270;Sammaljoki;790;Sastamala
38280;Illo;790;Sastamala
38300;Kiikka;790;Sastamala
38360;Kiikoinen;790;Sastamala
38370;Tervahauta;790;Sastamala
38420;Häijää;790;Sastamala
38460;Mouhijärvi Keskus;790;Sastamala
38470;Hyynilä;790;Sastamala
38510;Suodenniemi;790;Sastamala
92500;Rantsila Keskus;791;Siikalatva
92520;Sipola;791;Siikalatva
92530;Mankila;791;Siikalatva
92600;Pulkkila Keskus;791;Siikalatva
92610;Vorna;791;Siikalatva
92620;Piippola Keskus;791;Siikalatva
92640;Leskelä;791;Siikalatva
92650;Laakkola;791;Siikalatva
92700;Kestilä;791;Siikalatva
54915;Saimaanharju-Kyläniemi;831;Taipalsaari
54920;Taipalsaari;831;Taipalsaari
54930;Levänen;831;Taipalsaari
54940;Solkei;831;Taipalsaari
54960;Vehkataipale;831;Taipalsaari
56350;Kyläniemi;831;Taipalsaari
93400;Taivalkoski Keskus;832;Taivalkoski
93420;Jurmu;832;Taivalkoski
93440;Loukusa;832;Taivalkoski
93470;Inget;832;Taivalkoski
93540;Tyrövaara;832;Taivalkoski
93590;Vanhala;832;Taivalkoski
23310;Taivassalo;833;Taivassalo
31230;Susikas;834;Tammela
31250;Teuro;834;Tammela
31300;Tammela Keskus;834;Tammela
31310;Mustiala;834;Tammela
31340;Porras;834;Tammela
31350;Vistinkoski;834;Tammela
31370;Eerikkilän Urheiluopisto;834;Tammela
31380;Letku-Torro;834;Tammela
33100;Tampere Keskus;837;Tampere
33180;Lapinniemi-Käpylä;837;Tampere
33200;Tampere Keskus Läntinen;837;Tampere
33210;Itä-Amuri-Tammerkoski;837;Tampere
33230;Länsi-Amuri;837;Tampere
33240;Tahmela;837;Tampere
33250;Pispala;837;Tampere
33270;Epilä;837;Tampere
33300;Rahola;837;Tampere
33310;Tesoma;837;Tampere
33330;Myllypuro-Kalkku;837;Tampere
33340;Haukiluoma-Ikuri;837;Tampere
33400;Luoteis-Tampere;837;Tampere
33410;Lentävänniemi;837;Tampere
33420;Lamminpää;837;Tampere
33500;Osmonmäki-Petsamo;837;Tampere
33520;Keskussairaala-alue-Kauppi;837;Tampere
33530;Kissanmaa;837;Tampere
33540;Kaleva;837;Tampere
33560;Takahuhti;837;Tampere
33580;Atala-Linnainmaa;837;Tampere
33610;Olkahinen-Tasanne;837;Tampere
33680;Aitolahti;837;Tampere
33700;Messukylä;837;Tampere
33710;Kaukajärvi;837;Tampere
33720;Hervanta;837;Tampere
33730;Leinola-Vehmainen;837;Tampere
33800;Nekala;837;Tampere
33820;Koivistonkylä;837;Tampere
33840;Peltolammi;837;Tampere
33850;Multisilta;837;Tampere
33870;Vuores;837;Tampere
33900;Härmälä-Rantaperkiö;837;Tampere
34240;Kämmenteisko;837;Tampere
34260;Terälahti;837;Tampere
34270;Velaatta;837;Tampere
71640;Talluskylä;844;Tervo
72210;Tervo Keskus-Eliaksela;844;Tervo
72220;Eliaksela;844;Tervo
95300;Tervola Keskus;845;Tervola
95325;Paakkola;845;Tervola
95330;Tervola;845;Tervola
95340;Loue;845;Tervola
95350;Peura;845;Tervola
95355;Koivu-Peura;845;Tervola
95375;Yli-Paakkola;845;Tervola
61840;Norinkylä;846;Teuva
64700;Teuva Keskus;846;Teuva
64720;Perälä;846;Teuva
64740;Horo;846;Teuva
64760;Peltola;846;Teuva
64770;Äystö;846;Teuva
82350;Tikkala;848;Tohmajärvi
82360;Onkamo;848;Tohmajärvi
82600;Tohmajärvi Keskus;848;Tohmajärvi
82655;Värtsilä Keskus;848;Tohmajärvi
82660;Uusi-Värtsilä;848;Tohmajärvi
82670;Kaurila;848;Tohmajärvi
82675;Niirala-Jänisjoki;848;Tohmajärvi
82685;Littilä;848;Tohmajärvi
82770;Kaustajärvi;848;Tohmajärvi
69300;Toholampi Keskus;849;Toholampi
69310;Laitala;849;Toholampi
69330;Määttälä;849;Toholampi
69340;Purontaka;849;Toholampi
69410;Sykäräinen;849;Toholampi
41410;Kankainen;850;Toivakka
41440;Ruuhimäki;850;Toivakka
41660;Toivakka Keskus;850;Toivakka
94430;Kaakamo;851;Tornio
94460;Ruottala;851;Tornio
95400;Tornio Keskus;851;Tornio
95410;Kiviranta;851;Tornio
95420;Miukki-Palosaari-Luotomäki;851;Tornio
95430;Suensaari;851;Tornio
95440;Kyläjoki;851;Tornio
95450;Kirkonmäki;851;Tornio
95460;Kantojärvi;851;Tornio
95470;Pirkkiö-Röyttä;851;Tornio
95490;Terästehtaanalue;851;Tornio
95500;Vojakkala-Yli-Liakka;851;Tornio
95520;Kukkola;851;Tornio
95530;Karunki;851;Tornio
95540;Korpikylä;851;Tornio
95560;Aapajoki;851;Tornio
95590;Arpela;851;Tornio
20100;Turku Keskus;853;Turku
20200;Iso-Heikkilä;853;Turku
20210;Pahaniemi;853;Turku
20240;Pansio-Perno;853;Turku
20250;Pitkämäki-Muhkuri;853;Turku
20300;Pohjola-Kastu;853;Turku
20320;Kuninkoja-Mälikkälä;853;Turku
20360;Kärsämäki-Urusvuori-Halinen;853;Turku
20380;Räntämäki-Saramäki;853;Turku
20400;Moisio;853;Turku
20460;Jäkärlä;853;Turku
20500;Vesilinna;853;Turku
20520;Kupittaa;853;Turku
20540;Nummi-Ylioppilaskylä;853;Turku
20610;Varissuo;853;Turku
20700;Vartiovuori-Samppalinna;853;Turku
20720;Vasaramäki;853;Turku
20730;Skanssi;853;Turku
20740;Ilpoinen-Harittu;853;Turku
20750;Huhkola-Lauste-Vaala;853;Turku
20800;Ammattikorkeakoulu;853;Turku
20810;Martti-Korppolaismäki;853;Turku
20880;Uittamo;853;Turku
20900;Moikoinen-Pikisaari;853;Turku
20960;Kakskerta;853;Turku
21330;Paattinen;853;Turku
21340;Tortinmäki;853;Turku
95640;Juoksenki;854;Pello
95645;Turtola;854;Pello
95700;Pello Keskus;854;Pello
95710;Naamijoki;854;Pello
95720;Jarhoinen;854;Pello
95750;Orajärvi;854;Pello
95760;Konttajärvi;854;Pello
95770;Lankojärvi;854;Pello
95780;Sirkkakoski;854;Pello
95790;Lampsijärvi;854;Pello
97330;Rattosjärvi;854;Pello
97335;Ruuhivaara;854;Pello
71170;Laukka-aho;857;Tuusniemi
71200;Tuusniemi Keskus;857;Tuusniemi
71210;Tuusjärvi;857;Tuusniemi
71240;Paakkila;857;Tuusniemi
71260;Juurikkamäki;857;Tuusniemi
71280;Kosula;857;Tuusniemi
04300;Hyrylä;858;Tuusula
04310;Tuusula Keskus;858;Tuusula
04320;Riihikallio;858;Tuusula
04330;Lahela;858;Tuusula
04340;Mattila;858;Tuusula
04350;Nahkela;858;Tuusula
04360;Ruotsinkylä-Kiilinmäki;858;Tuusula
04370;Rusutjärvi;858;Tuusula
04380;Tuomala;858;Tuusula
04390;Jäniksenlinna;858;Tuusula
04500;Kellokoski;858;Tuusula
05400;Jokela;858;Tuusula
05430;Nuppulinna;858;Tuusula
91800;Tyrnävä;859;Tyrnävä
91950;Temmes;859;Tyrnävä
28260;Harjunpää;886;Ulvila
28400;Ulvila Keskus;886;Ulvila
28450;Vanha-Ulvila;886;Ulvila
29310;Kaasmarkku;886;Ulvila
29320;Leineperi;886;Ulvila
29340;Kullaa Keskus;886;Ulvila
29350;Palus;886;Ulvila
31140;Menonen;887;Urjala
31160;Nuutajärvi;887;Urjala
31700;Urjala Asemanseutu-Hanhisuo;887;Urjala
31720;Urjalankylä-Kehro;887;Urjala
31730;Honkola;887;Urjala
31750;Kehro;887;Urjala
31760;Urjala Keskus;887;Urjala
31830;Halkivaha;887;Urjala
31860;Tursa;887;Urjala
91600;Utajärvi Keskus;889;Utajärvi
91620;Sanginkylä;889;Utajärvi
91630;Juorkuna;889;Utajärvi
91640;Särkijärvi;889;Utajärvi
91660;Ahmas;889;Utajärvi
91670;Rokua;889;Utajärvi
99950;Karigasniemi;890;Utsjoki
99980;Utsjoki Keskus;890;Utsjoki
99990;Nuorgam;890;Utsjoki
41210;Jokihaara;892;Uurainen
41220;Höytiä;892;Uurainen
41230;Uurainen Keskus;892;Uurainen
41240;Kyynämöinen;892;Uurainen
41290;Kangashäkki;892;Uurainen
66840;Pensala;893;Uusikaarlepyy
66850;Jepua;893;Uusikaarlepyy
66900;Uusikaarlepyy Keskus;893;Uusikaarlepyy
66910;Soklot;893;Uusikaarlepyy
66930;Kovjoki;893;Uusikaarlepyy
66950;Munsala;893;Uusikaarlepyy
66970;Hirvlax;893;Uusikaarlepyy
66980;Monä;893;Uusikaarlepyy
23450;Lokalahti;895;Uusikaupunki
23500;Uusikaupunki Keskus;895;Uusikaupunki
23600;Kalanti Keskus;895;Uusikaupunki
23660;Kalanti Asemanseutu;895;Uusikaupunki
23930;Pyhämaa;895;Uusikaupunki
65100;Vaasa Keskus;905;Vaasa
65130;Hietalahti;905;Vaasa
65170;Vaskiluoto;905;Vaasa
65200;Palosaari;905;Vaasa
65230;Vetokannas;905;Vaasa
65280;Gerby;905;Vaasa
65300;Asevelikylä;905;Vaasa
65320;Huutoniemi;905;Vaasa
65350;Suvilahti;905;Vaasa
65370;Ristinummi;905;Vaasa
65380;Vanha Vaasa;905;Vaasa
65410;Sundom;905;Vaasa
66500;Vähäkyrö Keskus;905;Vaasa
66510;Merikaarto;905;Vaasa
37600;Valkeakoski Keskus;908;Valkeakoski
37630;Vääräkoivu;908;Valkeakoski
37700;Sääksmäki;908;Valkeakoski
37720;Ritvala;908;Valkeakoski
37740;Haukila;908;Valkeakoski
37770;Tarttila;908;Valkeakoski
37850;Metsäkansa;908;Valkeakoski
37860;Kärjenniemi;908;Valkeakoski
75700;Valtimo Keskus;911;Valtimo
75710;Karhunpää;911;Valtimo
75740;Pajukoski;911;Valtimo
75770;Puukari;911;Valtimo
75790;Rumo;911;Valtimo
75840;Ylä-Valtimo;911;Valtimo
78200;Varkaus Keskus;915;Varkaus
78210;Kuoppakangas;915;Varkaus
78250;Päiviönsaari;915;Varkaus
78300;Kommila;915;Varkaus
78310;Puurtila;915;Varkaus
78400;Luttila;915;Varkaus
78500;Pitkälänniemi-Könönpelto;915;Varkaus
78610;Kurola;915;Varkaus
78710;Akonlahti;915;Varkaus
78850;Käpykangas;915;Varkaus
78870;Kaura-Aho;915;Varkaus
78900;Ruokokoski;915;Varkaus
79480;Kangaslampi Keskus;915;Varkaus
79520;Viljolahti;915;Varkaus
23200;Vinkkilä;918;Vehmaa
23210;Vehmaa;918;Vehmaa
23260;Rautila;918;Vehmaa
72300;Vesanto Keskus;921;Vesanto
72310;Niinivesi;921;Vesanto
72330;Tiitilänkylä;921;Vesanto
72350;Pienola;921;Vesanto
72360;Närhilä;921;Vesanto
72380;Horontaipale;921;Vesanto
37350;Rämsöö;922;Vesilahti
37370;Narva;922;Vesilahti
37380;Krääkkiö;922;Vesilahti
37420;Valkkinen;922;Vesilahti
37470;Vesilahti Keskus;922;Vesilahti
69700;Veteli Keskus;924;Veteli
69730;Tunkkari;924;Veteli
69750;Sillanpää;924;Veteli
69820;Räyrinki;924;Veteli
69830;Pulkkinen;924;Veteli
69850;Patana;924;Veteli
74200;Vieremä Keskus;925;Vieremä
74230;Salahmi;925;Vieremä
74240;Marttisenjärvi;925;Vieremä
74250;Nissilä;925;Vieremä
74270;Kauppilanmäki;925;Vieremä
03100;Nummela;927;Vihti
03150;Huhmari;927;Vihti
03220;Tervalampi;927;Vihti
03250;Ojakkala;927;Vihti
03300;Otalampi;927;Vihti
03320;Selki;927;Vihti
03400;Vihti Kirkonkylä;927;Vihti
03430;Jokikunta;927;Vihti
03790;Vihtijärvi;927;Vihti
44480;Niinilahti;931;Viitasaari
44500;Viitasaari Keskus;931;Viitasaari
44530;Ilmolahti;931;Viitasaari
44580;Huopanankoski;931;Viitasaari
44590;Vuorilahti;931;Viitasaari
44610;Kärnä;931;Viitasaari
44630;Kumpumäki;931;Viitasaari
44640;Kymönkoski;931;Viitasaari
44670;Suovanlahti;931;Viitasaari
44680;Lahnanen;931;Viitasaari
44730;Löytänä;931;Viitasaari
44740;Keitelepohja-Kotvala;931;Viitasaari
44760;Keihärinkoski;931;Viitasaari
44770;Valkeisjärvi;931;Viitasaari
44790;Kotvala;931;Viitasaari
62800;Vimpeli Keskus;934;Vimpeli
62810;Savonjoki;934;Vimpeli
62840;Lakaniemi-Pokela;934;Vimpeli
62860;Sahi;934;Vimpeli
62870;Vinni;934;Vimpeli
62880;Sääksvesi-Vinni;934;Vimpeli
49860;Klamila;935;Virolahti
49900;Virolahti Keskus;935;Virolahti
49930;Vaalimaa;935;Virolahti
49960;Ala-Pihlaja;935;Virolahti
49980;Ravijoki;935;Virolahti
34710;Vaskivesi;936;Virrat
34730;Vaskuu;936;Virrat
34740;Koro;936;Virrat
34770;Kurjenkylä;936;Virrat
34800;Virrat Keskus;936;Virrat
34910;Äijänneva;936;Virrat
34930;Liedenpohja;936;Virrat
34950;Ohtola;936;Virrat
34970;Toisvesi;936;Virrat
34980;Killinkoski;936;Virrat
42870;Kotala;936;Virrat
22550;Värdö;941;Vårdö
62395;Petterinmäki;946;Vöyri
66600;Vöyri Keskus;946;Vöyri
66640;Maksamaa;946;Vöyri
66660;Bertby;946;Vöyri
66680;Kaurajärvi;946;Vöyri
66710;Kaitsor;946;Vöyri
66730;Oxkangar;946;Vöyri
66800;Oravainen Keskus;946;Vöyri
66810;Kimo;946;Vöyri
66820;Komossa;946;Vöyri
66830;Oravaisten Tehdas;946;Vöyri
95600;Ylitornio Keskus;976;Ylitornio
95610;Kainuunkylä;976;Ylitornio
95615;Pekanpää;976;Ylitornio
95620;Aavasaksa;976;Ylitornio
95630;Kuivakangas;976;Ylitornio
95635;Kaulinranta;976;Ylitornio
95655;Etelä-Portimojärvi;976;Ylitornio
95660;Kantomaanpää;976;Ylitornio
95670;Pessalompolo;976;Ylitornio
95675;Meltosjärvi;976;Ylitornio
95680;Lohijärvi;976;Ylitornio
95690;Mellakoski;976;Ylitornio
97250;Raanujärvi;976;Ylitornio
84100;Ylivieska Keskus;977;Ylivieska
84460;Tuomiperä;977;Ylivieska
84540;Vähäkangas;977;Ylivieska
84650;Kantokylä;977;Ylivieska
84770;Isokoski;977;Ylivieska
84880;Raudaskylä;977;Ylivieska
33430;Vuorentausta;980;Ylöjärvi
33450;Siivikkala;980;Ylöjärvi
33470;Ylöjärvi Keskus;980;Ylöjärvi
33480;Manninmäki-Haavisto;980;Ylöjärvi
34110;Lakiala;980;Ylöjärvi
34130;Ylinen;980;Ylöjärvi
34140;Mutala;980;Ylöjärvi
34150;Kyrönlahti;980;Ylöjärvi
34180;Länsi-Teisko;980;Ylöjärvi
34300;Kuru Keskus;980;Ylöjärvi
34320;Parkkuu;980;Ylöjärvi
34330;Poikelus;980;Ylöjärvi
34510;Luode;980;Ylöjärvi
34530;Länsi-Aure;980;Ylöjärvi
34550;Itä-Aure;980;Ylöjärvi
39160;Julkujärvi;980;Ylöjärvi
39310;Viljakkala Keskus;980;Ylöjärvi
39340;Karhe;980;Ylöjärvi
39360;Komi;980;Ylöjärvi
32100;Ypäjä Keskus;981;Ypäjä
32140;Ypäjä Asemanseutu;981;Ypäjä
63660;Ähtärinranta;989;Ähtäri
63700;Ähtäri Keskus;989;Ähtäri
63770;Peränne;989;Ähtäri
63780;Alastaipale;989;Ähtäri
63900;Myllymäki-Vehunkylä;989;Ähtäri
63910;Inhan Tehtaat;989;Ähtäri
63920;Inha;989;Ähtäri
63950;Vehunkylä;989;Ähtäri
44100;Äänekoski Keskus;992;Äänekoski
44120;Mämmensalmi-Mustaniemi;992;Äänekoski
44150;Likolahti-Karhunlähde;992;Äänekoski
44160;Huutomäki;992;Äänekoski
44170;Hietama;992;Äänekoski
44190;Parantala;992;Äänekoski
44200;Suolahti Keskus;992;Äänekoski
44220;Sörkänmäki;992;Äänekoski
44250;Äänekoivisto;992;Äänekoski
44260;Vihijärvi;992;Äänekoski
44280;Sumiainen Keskus;992;Äänekoski
44400;Konginkangas Keskus;992;Äänekoski
44420;Liimattala;992;Äänekoski
44440;Räihä;992;Äänekoski
44460;Kalaniemi;992;Äänekoski